<kml xmlns="http://www.opengis.net/kml/2.2" xmlns:atom="http://www.w3.org/2005/Atom" xmlns:gx="http://www.google.com/kml/ext/2.2">
  <Document>
    <Style id="QueryArea">
      <LineStyle>
        <color>ffc0c000</color>
        <width>3</width>
      </LineStyle>
      <PolyStyle>
        <color>80ffffaa</color>
      </PolyStyle>
    </Style>
    <Style id="F3548v21Accepted">
      <LineStyle>
        <color>ff00c000</color>
        <width>3</width>
      </LineStyle>
      <PolyStyle>
        <color>80c0c0c0</color>
      </PolyStyle>
    </Style>
    <Style id="F3548v21Activated">
      <LineStyle>
        <color>ff00c000</color>
        <width>3</width>
      </LineStyle>
      <PolyStyle>
        <color>8000ff00</color>
      </PolyStyle>
    </Style>
    <Style id="F3548v21Nonconforming">
      <LineStyle>
        <color>ff00ffff</color>
        <width>5</width>
      </LineStyle>
      <PolyStyle>
        <color>8000ffff</color>
      </PolyStyle>
    </Style>
    <Style id="F3548v21Contingent">
      <LineStyle>
        <color>ff0000ff</color>
        <width>5</width>
      </LineStyle>
      <PolyStyle>
        <color>80ff0000ff</color>
      </PolyStyle>
    </Style>
    <Style id="F3548v21AcceptedFuture">
      <LineStyle>
        <color>80c0c0c0</color>
        <width>1</width>
      </LineStyle>
      <PolyStyle>
        <color>00000000</color>
      </PolyStyle>
    </Style>
    <Style id="F3548v21ActivatedFuture">
      <LineStyle>
        <color>8040c040</color>
        <width>1</width>
      </LineStyle>
      <PolyStyle>
        <color>00000000</color>
      </PolyStyle>
    </Style>
    <Style id="F3548v21NonconformingFuture">
      <LineStyle>
        <color>8000ffff</color>
        <width>1</width>
      </LineStyle>
      <PolyStyle>
        <color>00000000</color>
      </PolyStyle>
    </Style>
    <Style id="F3548v21ContingentFuture">
      <LineStyle>
        <color>80ff0000ff</color>
        <width>1</width>
      </LineStyle>
      <PolyStyle>
        <color>00000000</color>
      </PolyStyle>
    </Style>
    <Style id="Planned_Nominal">
      <LineStyle>
        <color>ff00c000</color>
        <width>3</width>
      </LineStyle>
      <PolyStyle>
        <color>80808080</color>
      </PolyStyle>
    </Style>
    <Style id="InUse_Nominal">
      <LineStyle>
        <color>ff00c000</color>
        <width>3</width>
      </LineStyle>
      <PolyStyle>
        <color>8000ff00</color>
      </PolyStyle>
    </Style>
    <Style id="InUse_OffNominal">
      <LineStyle>
        <color>ff00ffff</color>
        <width>5</width>
      </LineStyle>
      <PolyStyle>
        <color>8000ff00</color>
      </PolyStyle>
    </Style>
    <Style id="InUse_Contingent">
      <LineStyle>
        <color>ff0000ff</color>
        <width>5</width>
      </LineStyle>
      <PolyStyle>
        <color>8000ff00</color>
      </PolyStyle>
    </Style>
    <Style id="unmodifiedtelemetry">
      <IconStyle>
        <scale>1.4</scale>
        <Icon>
          <href>http://maps.google.com/mapfiles/kml/shapes/placemark_circle.png</href>
        </Icon>
      </IconStyle>
    </Style>
    <Style id="modifiedtelemetry">
      <IconStyle>
        <scale>1.4</scale>
        <Icon>
          <href>http://maps.google.com/mapfiles/kml/shapes/placemark_square.png</href>
        </Icon>
      </IconStyle>
    </Style>
    <Style id="aircraft">
      <IconStyle>
        <scale>1.4</scale>
        <Icon>
          <href>http://maps.google.com/mapfiles/kml/shapes/airports.png</href>
        </Icon>
      </IconStyle>
    </Style>
    <Folder>
      <name>ASTM NetRID networked UAS disconnection</name>
      <Folder>
        <name>Networked UAS disconnect</name>
        <Folder>
          <name>Injection</name>
          <Folder>
            <name>E2: uss1 interuss.automated_testing.rid.v1.injection.createTest</name>
            <Folder>
              <name>Test flight 99324878-d8ce-430a-8cb2-4fe7366978f1</name>
              <Placemark>
                <name>Telemetry 0</name>
                <styleUrl>#unmodifiedtelemetry</styleUrl>
                <TimeSpan>
                  <begin>2026-10-09T06:25:19.607698+00:00</begin>
                  <end>2026-10-09T06:25:20.607698+00:00</end>
                </TimeSpan>
                <Point>
                  <coordinates>8.523360763516273,47.3714681604079,0</coordinates>
                </Point>
              </Placemark>
              <Placemark>
                <name>Telemetry 1</name>
                <styleUrl>#unmodifiedtelemetry</styleUrl>
                <TimeSpan>
                  <begin>2026-10-09T06:25:20.607698+00:00</begin>
                  <end>2026-10-09T06:25:21.607698+00:00</end>
                </TimeSpan>
                <Point>
                  <coordinates>8.523321827032547,47.3715045208158,0</coordinates>
                </Point>
              </Placemark>
              <Placemark>
                <name>Telemetry 2</name>
                <styleUrl>#unmodifiedtelemetry</styleUrl>
                <TimeSpan>
                  <begin>2026-10-09T06:25:21.607698+00:00</begin>
                  <end>2026-10-09T06:25:22.607698+00:00</end>
                </TimeSpan>
                <Point>
                  <coordinates>8.523282890548819,47.371540881223694,0</coordinates>
                </Point>
              </Placemark>
              <Placemark>
                <name>Telemetry 3</name>
                <styleUrl>#unmodifiedtelemetry</styleUrl>
                <TimeSpan>
                  <begin>2026-10-09T06:25:22.607698+00:00</begin>
                  <end>2026-10-09T06:25:23.607698+00:00</end>
                </TimeSpan>
                <Point>
                  <coordinates>8.52324395406509,47.37157724163159,0</coordinates>
                </Point>
              </Placemark>
              <Placemark>
                <name>Telemetry 4</name>
                <styleUrl>#unmodifiedtelemetry</styleUrl>
                <TimeSpan>
                  <begin>2026-10-09T06:25:23.607698+00:00</begin>
                  <end>2026-10-09T06:25:24.607698+00:00</end>
                </TimeSpan>
                <Point>
                  <coordinates>8.523205017581365,47.37161360203949,0</coordinates>
                </Point>
              </Placemark>
              <Placemark>
                <name>Telemetry 5</name>
                <styleUrl>#unmodifiedtelemetry</styleUrl>
                <TimeSpan>
                  <begin>2026-10-09T06:25:24.607698+00:00</begin>
                  <end>2026-10-09T06:25:25.607698+00:00</end>
                </TimeSpan>
                <Point>
                  <coordinates>8.523166081097637,47.371649962447385,0</coordinates>
                </Point>
              </Placemark>
              <Placemark>
                <name>Telemetry 6</name>
                <styleUrl>#unmodifiedtelemetry</styleUrl>
                <TimeSpan>
                  <begin>2026-10-09T06:25:25.607698+00:00</begin>
                  <end>2026-10-09T06:25:26.607698+00:00</end>
                </TimeSpan>
                <Point>
                  <coordinates>8.523118769605144,47.37168134446735,0</coordinates>
                </Point>
              </Placemark>
              <Placemark>
                <name>Telemetry 7</name>
                <styleUrl>#unmodifiedtelemetry</styleUrl>
                <TimeSpan>
                  <begin>2026-10-09T06:25:26.607698+00:00</begin>
                  <end>2026-10-09T06:25:27.607698+00:00</end>
                </TimeSpan>
                <Point>
                  <coordinates>8.523070583658326,47.37171220668214,0</coordinates>
                </Point>
              </Placemark>
              <Placemark>
                <name>Telemetry 8</name>
                <styleUrl>#unmodifiedtelemetry</styleUrl>
                <TimeSpan>
                  <begin>2026-10-09T06:25:27.607698+00:00</begin>
                  <end>2026-10-09T06:25:28.607698+00:00</end>
                </TimeSpan>
                <Point>
                  <coordinates>8.523022397711506,47.371743068896926,0</coordinates>
                </Point>
              </Placemark>
              <Placemark>
                <name>Telemetry 9</name>
                <styleUrl>#unmodifiedtelemetry</styleUrl>
                <TimeSpan>
                  <begin>2026-10-09T06:25:28.607698+00:00</begin>
                  <end>2026-10-09T06:25:29.607698+00:00</end>
                </TimeSpan>
                <Point>
                  <coordinates>8.5229757392881,47.371774910132885,0</coordinates>
                </Point>
              </Placemark>
              <Placemark>
                <name>Telemetry 10</name>
                <styleUrl>#unmodifiedtelemetry</styleUrl>
                <TimeSpan>
                  <begin>2026-10-09T06:25:29.607698+00:00</begin>
                  <end>2026-10-09T06:25:30.607698+00:00</end>
                </TimeSpan>
                <Point>
                  <coordinates>8.522932891599606,47.371809193747204,0</coordinates>
                </Point>
              </Placemark>
              <Placemark>
                <name>Telemetry 11</name>
                <styleUrl>#unmodifiedtelemetry</styleUrl>
                <TimeSpan>
                  <begin>2026-10-09T06:25:30.607698+00:00</begin>
                  <end>2026-10-09T06:25:31.607698+00:00</end>
                </TimeSpan>
                <Point>
                  <coordinates>8.522890043911113,47.37184347736152,0</coordinates>
                </Point>
              </Placemark>
              <Placemark>
                <name>Telemetry 12</name>
                <styleUrl>#unmodifiedtelemetry</styleUrl>
                <TimeSpan>
                  <begin>2026-10-09T06:25:31.607698+00:00</begin>
                  <end>2026-10-09T06:25:32.607698+00:00</end>
                </TimeSpan>
                <Point>
                  <coordinates>8.52284719622262,47.37187776097584,0</coordinates>
                </Point>
              </Placemark>
              <Placemark>
                <name>Telemetry 13</name>
                <styleUrl>#unmodifiedtelemetry</styleUrl>
                <TimeSpan>
                  <begin>2026-10-09T06:25:32.607698+00:00</begin>
                  <end>2026-10-09T06:25:33.607698+00:00</end>
                </TimeSpan>
                <Point>
                  <coordinates>8.522804348534127,47.37191204459016,0</coordinates>
                </Point>
              </Placemark>
              <Placemark>
                <name>Telemetry 14</name>
                <styleUrl>#unmodifiedtelemetry</styleUrl>
                <TimeSpan>
                  <begin>2026-10-09T06:25:33.607698+00:00</begin>
                  <end>2026-10-09T06:25:34.607698+00:00</end>
                </TimeSpan>
                <Point>
                  <coordinates>8.522761500845634,47.37194632820448,0</coordinates>
                </Point>
              </Placemark>
            </Folder>
          </Folder>
        </Folder>
        <Folder>
          <name>Service Provider polling</name>
        </Folder>
        <Folder>
          <name>Service Provider polling</name>
        </Folder>
        <Folder>
          <name>Service Provider polling</name>
          <Folder>
            <name>E11: uss1 astm.f3411.v22a.uss.searchFlights</name>
          </Folder>
        </Folder>
        <Folder>
          <name>Service Provider polling</name>
          <Folder>
            <name>E15: uss1 astm.f3411.v22a.uss.searchFlights</name>
          </Folder>
        </Folder>
        <Folder>
          <name>Service Provider polling</name>
          <Folder>
            <name>E19: uss1 astm.f3411.v22a.uss.searchFlights</name>
            <Folder>
              <name>b625aef3-2a87-45d8-a054-fc46daf64af3</name>
              <Placemark>
                <name>Helicopter b625aef3-2a87-45d8-a054-fc46daf64af3 SIMULATED</name>
                <styleUrl>#aircraft</styleUrl>
                <Point>
                  <coordinates>8.523205017581365,47.37161360203949,0</coordinates>
                </Point>
              </Placemark>
              <Placemark>
                <name>b625aef3-2a87-45d8-a054-fc46daf64af3 recent positions</name>
                <styleUrl>#ridtail</styleUrl>
                <LineString>
                  <tessellate>1</tessellate>
                  <coordinates>8.523360763516273,47.3714681604079,0 8.523321827032547,47.3715045208158,0 8.523282890548819,47.371540881223694,0 8.52324395406509,47.37157724163159,0 8.523205017581365,47.37161360203949,0</coordinates>
                </LineString>
              </Placemark>
            </Folder>
          </Folder>
        </Folder>
        <Folder>
          <name>Service Provider polling</name>
          <Folder>
            <name>E23: uss1 astm.f3411.v22a.uss.searchFlights</name>
            <Folder>
              <name>b625aef3-2a87-45d8-a054-fc46daf64af3</name>
              <Placemark>
                <name>Helicopter b625aef3-2a87-45d8-a054-fc46daf64af3 SIMULATED</name>
                <styleUrl>#aircraft</styleUrl>
                <Point>
                  <coordinates>8.523205017581365,47.37161360203949,0</coordinates>
                </Point>
              </Placemark>
              <Placemark>
                <name>b625aef3-2a87-45d8-a054-fc46daf64af3 recent positions</name>
                <styleUrl>#ridtail</styleUrl>
                <LineString>
                  <tessellate>1</tessellate>
                  <coordinates>8.523360763516273,47.3714681604079,0 8.523321827032547,47.3715045208158,0 8.523282890548819,47.371540881223694,0 8.52324395406509,47.37157724163159,0 8.523205017581365,47.37161360203949,0</coordinates>
                </LineString>
              </Placemark>
            </Folder>
          </Folder>
        </Folder>
        <Folder>
          <name>Service Provider polling</name>
          <Folder>
            <name>E27: uss1 astm.f3411.v22a.uss.searchFlights</name>
            <Folder>
              <name>b625aef3-2a87-45d8-a054-fc46daf64af3</name>
              <Placemark>
                <name>Helicopter b625aef3-2a87-45d8-a054-fc46daf64af3 SIMULATED</name>
                <styleUrl>#aircraft</styleUrl>
                <Point>
                  <coordinates>8.5229757392881,47.371774910132885,0</coordinates>
                </Point>
              </Placemark>
              <Placemark>
                <name>b625aef3-2a87-45d8-a054-fc46daf64af3 recent positions</name>
                <styleUrl>#ridtail</styleUrl>
                <LineString>
                  <tessellate>1</tessellate>
                  <coordinates>8.523360763516273,47.3714681604079,0 8.523321827032547,47.3715045208158,0 8.523282890548819,47.371540881223694,0 8.52324395406509,47.37157724163159,0 8.523205017581365,47.37161360203949,0 8.523166081097637,47.371649962447385,0 8.523118769605144,47.37168134446735,0 8.523070583658326,47.37171220668214,0 8.523022397711506,47.371743068896926,0 8.5229757392881,47.371774910132885,0</coordinates>
                </LineString>
              </Placemark>
            </Folder>
          </Folder>
        </Folder>
        <Folder>
          <name>Service Provider polling</name>
          <Folder>
            <name>E31: uss1 astm.f3411.v22a.uss.searchFlights</name>
            <Folder>
              <name>b625aef3-2a87-45d8-a054-fc46daf64af3</name>
              <Placemark>
                <name>Helicopter b625aef3-2a87-45d8-a054-fc46daf64af3 SIMULATED</name>
                <styleUrl>#aircraft</styleUrl>
                <Point>
                  <coordinates>8.5229757392881,47.371774910132885,0</coordinates>
                </Point>
              </Placemark>
              <Placemark>
                <name>b625aef3-2a87-45d8-a054-fc46daf64af3 recent positions</name>
                <styleUrl>#ridtail</styleUrl>
                <LineString>
                  <tessellate>1</tessellate>
                  <coordinates>8.523360763516273,47.3714681604079,0 8.523321827032547,47.3715045208158,0 8.523282890548819,47.371540881223694,0 8.52324395406509,47.37157724163159,0 8.523205017581365,47.37161360203949,0 8.523166081097637,47.371649962447385,0 8.523118769605144,47.37168134446735,0 8.523070583658326,47.37171220668214,0 8.523022397711506,47.371743068896926,0 8.5229757392881,47.371774910132885,0</coordinates>
                </LineString>
              </Placemark>
            </Folder>
          </Folder>
        </Folder>
        <Folder>
          <name>Service Provider polling</name>
          <Folder>
            <name>E35: uss1 astm.f3411.v22a.uss.searchFlights</name>
            <Folder>
              <name>b625aef3-2a87-45d8-a054-fc46daf64af3</name>
              <Placemark>
                <name>Helicopter b625aef3-2a87-45d8-a054-fc46daf64af3 SIMULATED</name>
                <styleUrl>#aircraft</styleUrl>
                <Point>
                  <coordinates>8.522761500845634,47.37194632820448,0</coordinates>
                </Point>
              </Placemark>
              <Placemark>
                <name>b625aef3-2a87-45d8-a054-fc46daf64af3 recent positions</name>
                <styleUrl>#ridtail</styleUrl>
                <LineString>
                  <tessellate>1</tessellate>
                  <coordinates>8.523360763516273,47.3714681604079,0 8.523321827032547,47.3715045208158,0 8.523282890548819,47.371540881223694,0 8.52324395406509,47.37157724163159,0 8.523205017581365,47.37161360203949,0 8.523166081097637,47.371649962447385,0 8.523118769605144,47.37168134446735,0 8.523070583658326,47.37171220668214,0 8.523022397711506,47.371743068896926,0 8.5229757392881,47.371774910132885,0 8.522932891599606,47.371809193747204,0 8.522890043911113,47.37184347736152,0 8.52284719622262,47.37187776097584,0 8.522804348534127,47.37191204459016,0 8.522761500845634,47.37194632820448,0</coordinates>
                </LineString>
              </Placemark>
            </Folder>
          </Folder>
        </Folder>
        <Folder>
          <name>Service Provider polling</name>
          <Folder>
            <name>E41: uss1 astm.f3411.v22a.uss.searchFlights</name>
            <Folder>
              <name>b625aef3-2a87-45d8-a054-fc46daf64af3</name>
              <Placemark>
                <name>Helicopter b625aef3-2a87-45d8-a054-fc46daf64af3 SIMULATED</name>
                <styleUrl>#aircraft</styleUrl>
                <Point>
                  <coordinates>8.522761500845634,47.37194632820448,0</coordinates>
                </Point>
              </Placemark>
              <Placemark>
                <name>b625aef3-2a87-45d8-a054-fc46daf64af3 recent positions</name>
                <styleUrl>#ridtail</styleUrl>
                <LineString>
                  <tessellate>1</tessellate>
                  <coordinates>8.523360763516273,47.3714681604079,0 8.523321827032547,47.3715045208158,0 8.523282890548819,47.371540881223694,0 8.52324395406509,47.37157724163159,0 8.523205017581365,47.37161360203949,0 8.523166081097637,47.371649962447385,0 8.523118769605144,47.37168134446735,0 8.523070583658326,47.37171220668214,0 8.523022397711506,47.371743068896926,0 8.5229757392881,47.371774910132885,0 8.522932891599606,47.371809193747204,0 8.522890043911113,47.37184347736152,0 8.52284719622262,47.37187776097584,0 8.522804348534127,47.37191204459016,0 8.522761500845634,47.37194632820448,0</coordinates>
                </LineString>
              </Placemark>
            </Folder>
          </Folder>
        </Folder>
        <Folder>
          <name>Service Provider polling</name>
          <Folder>
            <name>E47: uss1 astm.f3411.v22a.uss.searchFlights</name>
            <Folder>
              <name>b625aef3-2a87-45d8-a054-fc46daf64af3</name>
              <Placemark>
                <name>Helicopter b625aef3-2a87-45d8-a054-fc46daf64af3 SIMULATED</name>
                <styleUrl>#aircraft</styleUrl>
                <Point>
                  <coordinates>8.522761500845634,47.37194632820448,0</coordinates>
                </Point>
              </Placemark>
              <Placemark>
                <name>b625aef3-2a87-45d8-a054-fc46daf64af3 recent positions</name>
                <styleUrl>#ridtail</styleUrl>
                <LineString>
                  <tessellate>1</tessellate>
                  <coordinates>8.523360763516273,47.3714681604079,0 8.523321827032547,47.3715045208158,0 8.523282890548819,47.371540881223694,0 8.52324395406509,47.37157724163159,0 8.523205017581365,47.37161360203949,0 8.523166081097637,47.371649962447385,0 8.523118769605144,47.37168134446735,0 8.523070583658326,47.37171220668214,0 8.523022397711506,47.371743068896926,0 8.5229757392881,47.371774910132885,0 8.522932891599606,47.371809193747204,0 8.522890043911113,47.37184347736152,0 8.52284719622262,47.37187776097584,0 8.522804348534127,47.37191204459016,0 8.522761500845634,47.37194632820448,0</coordinates>
                </LineString>
              </Placemark>
            </Folder>
          </Folder>
        </Folder>
        <Folder>
          <name>Service Provider polling</name>
          <Folder>
            <name>E53: uss1 astm.f3411.v22a.uss.searchFlights</name>
            <Folder>
              <name>b625aef3-2a87-45d8-a054-fc46daf64af3</name>
              <Placemark>
                <name>Helicopter b625aef3-2a87-45d8-a054-fc46daf64af3 SIMULATED</name>
                <styleUrl>#aircraft</styleUrl>
                <Point>
                  <coordinates>8.522761500845634,47.37194632820448,0</coordinates>
                </Point>
              </Placemark>
              <Placemark>
                <name>b625aef3-2a87-45d8-a054-fc46daf64af3 recent positions</name>
                <styleUrl>#ridtail</styleUrl>
                <LineString>
                  <tessellate>1</tessellate>
                  <coordinates>8.523360763516273,47.3714681604079,0 8.523321827032547,47.3715045208158,0 8.523282890548819,47.371540881223694,0 8.52324395406509,47.37157724163159,0 8.523205017581365,47.37161360203949,0 8.523166081097637,47.371649962447385,0 8.523118769605144,47.37168134446735,0 8.523070583658326,47.37171220668214,0 8.523022397711506,47.371743068896926,0 8.5229757392881,47.371774910132885,0 8.522932891599606,47.371809193747204,0 8.522890043911113,47.37184347736152,0 8.52284719622262,47.37187776097584,0 8.522804348534127,47.37191204459016,0 8.522761500845634,47.37194632820448,0</coordinates>
                </LineString>
              </Placemark>
            </Folder>
          </Folder>
        </Folder>
        <Folder>
          <name>Service Provider polling</name>
          <Folder>
            <name>E59: uss1 astm.f3411.v22a.uss.searchFlights</name>
            <Folder>
              <name>b625aef3-2a87-45d8-a054-fc46daf64af3</name>
              <Placemark>
                <name>Helicopter b625aef3-2a87-45d8-a054-fc46daf64af3 SIMULATED</name>
                <styleUrl>#aircraft</styleUrl>
                <Point>
                  <coordinates>8.522761500845634,47.37194632820448,0</coordinates>
                </Point>
              </Placemark>
              <Placemark>
                <name>b625aef3-2a87-45d8-a054-fc46daf64af3 recent positions</name>
                <styleUrl>#ridtail</styleUrl>
                <LineString>
                  <tessellate>1</tessellate>
                  <coordinates>8.523360763516273,47.3714681604079,0 8.523321827032547,47.3715045208158,0 8.523282890548819,47.371540881223694,0 8.52324395406509,47.37157724163159,0 8.523205017581365,47.37161360203949,0 8.523166081097637,47.371649962447385,0 8.523118769605144,47.37168134446735,0 8.523070583658326,47.37171220668214,0 8.523022397711506,47.371743068896926,0 8.5229757392881,47.371774910132885,0 8.522932891599606,47.371809193747204,0 8.522890043911113,47.37184347736152,0 8.52284719622262,47.37187776097584,0 8.522804348534127,47.37191204459016,0 8.522761500845634,47.37194632820448,0</coordinates>
                </LineString>
              </Placemark>
            </Folder>
          </Folder>
        </Folder>
        <Folder>
          <name>Service Provider polling</name>
          <Folder>
            <name>E65: uss1 astm.f3411.v22a.uss.searchFlights</name>
            <Folder>
              <name>b625aef3-2a87-45d8-a054-fc46daf64af3</name>
              <Placemark>
                <name>Helicopter b625aef3-2a87-45d8-a054-fc46daf64af3 SIMULATED</name>
                <styleUrl>#aircraft</styleUrl>
                <Point>
                  <coordinates>8.522761500845634,47.37194632820448,0</coordinates>
                </Point>
              </Placemark>
              <Placemark>
                <name>b625aef3-2a87-45d8-a054-fc46daf64af3 recent positions</name>
                <styleUrl>#ridtail</styleUrl>
                <LineString>
                  <tessellate>1</tessellate>
                  <coordinates>8.523360763516273,47.3714681604079,0 8.523321827032547,47.3715045208158,0 8.523282890548819,47.371540881223694,0 8.52324395406509,47.37157724163159,0 8.523205017581365,47.37161360203949,0 8.523166081097637,47.371649962447385,0 8.523118769605144,47.37168134446735,0 8.523070583658326,47.37171220668214,0 8.523022397711506,47.371743068896926,0 8.5229757392881,47.371774910132885,0 8.522932891599606,47.371809193747204,0 8.522890043911113,47.37184347736152,0 8.52284719622262,47.37187776097584,0 8.522804348534127,47.37191204459016,0 8.522761500845634,47.37194632820448,0</coordinates>
                </LineString>
              </Placemark>
            </Folder>
          </Folder>
        </Folder>
        <Folder>
          <name>Service Provider polling</name>
          <Folder>
            <name>E71: uss1 astm.f3411.v22a.uss.searchFlights</name>
            <Folder>
              <name>b625aef3-2a87-45d8-a054-fc46daf64af3</name>
              <Placemark>
                <name>Helicopter b625aef3-2a87-45d8-a054-fc46daf64af3 SIMULATED</name>
                <styleUrl>#aircraft</styleUrl>
                <Point>
                  <coordinates>8.522761500845634,47.37194632820448,0</coordinates>
                </Point>
              </Placemark>
              <Placemark>
                <name>b625aef3-2a87-45d8-a054-fc46daf64af3 recent positions</name>
                <styleUrl>#ridtail</styleUrl>
                <LineString>
                  <tessellate>1</tessellate>
                  <coordinates>8.523360763516273,47.3714681604079,0 8.523321827032547,47.3715045208158,0 8.523282890548819,47.371540881223694,0 8.52324395406509,47.37157724163159,0 8.523205017581365,47.37161360203949,0 8.523166081097637,47.371649962447385,0 8.523118769605144,47.37168134446735,0 8.523070583658326,47.37171220668214,0 8.523022397711506,47.371743068896926,0 8.5229757392881,47.371774910132885,0 8.522932891599606,47.371809193747204,0 8.522890043911113,47.37184347736152,0 8.52284719622262,47.37187776097584,0 8.522804348534127,47.37191204459016,0 8.522761500845634,47.37194632820448,0</coordinates>
                </LineString>
              </Placemark>
            </Folder>
          </Folder>
        </Folder>
        <Folder>
          <name>Service Provider polling</name>
          <Folder>
            <name>E77: uss1 astm.f3411.v22a.uss.searchFlights</name>
            <Folder>
              <name>b625aef3-2a87-45d8-a054-fc46daf64af3</name>
              <Placemark>
                <name>Helicopter b625aef3-2a87-45d8-a054-fc46daf64af3 SIMULATED</name>
                <styleUrl>#aircraft</styleUrl>
                <Point>
                  <coordinates>8.522761500845634,47.37194632820448,0</coordinates>
                </Point>
              </Placemark>
              <Placemark>
                <name>b625aef3-2a87-45d8-a054-fc46daf64af3 recent positions</name>
                <styleUrl>#ridtail</styleUrl>
                <LineString>
                  <tessellate>1</tessellate>
                  <coordinates>8.523360763516273,47.3714681604079,0 8.523321827032547,47.3715045208158,0 8.523282890548819,47.371540881223694,0 8.52324395406509,47.37157724163159,0 8.523205017581365,47.37161360203949,0 8.523166081097637,47.371649962447385,0 8.523118769605144,47.37168134446735,0 8.523070583658326,47.37171220668214,0 8.523022397711506,47.371743068896926,0 8.5229757392881,47.371774910132885,0 8.522932891599606,47.371809193747204,0 8.522890043911113,47.37184347736152,0 8.52284719622262,47.37187776097584,0 8.522804348534127,47.37191204459016,0 8.522761500845634,47.37194632820448,0</coordinates>
                </LineString>
              </Placemark>
            </Folder>
          </Folder>
        </Folder>
        <Folder>
          <name>Service Provider polling</name>
          <Folder>
            <name>E83: uss1 astm.f3411.v22a.uss.searchFlights</name>
            <Folder>
              <name>b625aef3-2a87-45d8-a054-fc46daf64af3</name>
              <Placemark>
                <name>Helicopter b625aef3-2a87-45d8-a054-fc46daf64af3 SIMULATED</name>
                <styleUrl>#aircraft</styleUrl>
                <Point>
                  <coordinates>8.522761500845634,47.37194632820448,0</coordinates>
                </Point>
              </Placemark>
              <Placemark>
                <name>b625aef3-2a87-45d8-a054-fc46daf64af3 recent positions</name>
                <styleUrl>#ridtail</styleUrl>
                <LineString>
                  <tessellate>1</tessellate>
                  <coordinates>8.523360763516273,47.3714681604079,0 8.523321827032547,47.3715045208158,0 8.523282890548819,47.371540881223694,0 8.52324395406509,47.37157724163159,0 8.523205017581365,47.37161360203949,0 8.523166081097637,47.371649962447385,0 8.523118769605144,47.37168134446735,0 8.523070583658326,47.37171220668214,0 8.523022397711506,47.371743068896926,0 8.5229757392881,47.371774910132885,0 8.522932891599606,47.371809193747204,0 8.522890043911113,47.37184347736152,0 8.52284719622262,47.37187776097584,0 8.522804348534127,47.37191204459016,0 8.522761500845634,47.37194632820448,0</coordinates>
                </LineString>
              </Placemark>
            </Folder>
          </Folder>
        </Folder>
        <Folder>
          <name>Service Provider polling</name>
          <Folder>
            <name>E89: uss1 astm.f3411.v22a.uss.searchFlights</name>
            <Folder>
              <name>b625aef3-2a87-45d8-a054-fc46daf64af3</name>
              <Placemark>
                <name>Helicopter b625aef3-2a87-45d8-a054-fc46daf64af3 SIMULATED</name>
                <styleUrl>#aircraft</styleUrl>
                <Point>
                  <coordinates>8.522761500845634,47.37194632820448,0</coordinates>
                </Point>
              </Placemark>
              <Placemark>
                <name>b625aef3-2a87-45d8-a054-fc46daf64af3 recent positions</name>
                <styleUrl>#ridtail</styleUrl>
                <LineString>
                  <tessellate>1</tessellate>
                  <coordinates>8.523360763516273,47.3714681604079,0 8.523321827032547,47.3715045208158,0 8.523282890548819,47.371540881223694,0 8.52324395406509,47.37157724163159,0 8.523205017581365,47.37161360203949,0 8.523166081097637,47.371649962447385,0 8.523118769605144,47.37168134446735,0 8.523070583658326,47.37171220668214,0 8.523022397711506,47.371743068896926,0 8.5229757392881,47.371774910132885,0 8.522932891599606,47.371809193747204,0 8.522890043911113,47.37184347736152,0 8.52284719622262,47.37187776097584,0 8.522804348534127,47.37191204459016,0 8.522761500845634,47.37194632820448,0</coordinates>
                </LineString>
              </Placemark>
            </Folder>
          </Folder>
        </Folder>
        <Folder>
          <name>Service Provider polling</name>
          <Folder>
            <name>E95: uss1 astm.f3411.v22a.uss.searchFlights</name>
            <Folder>
              <name>b625aef3-2a87-45d8-a054-fc46daf64af3</name>
              <Placemark>
                <name>Helicopter b625aef3-2a87-45d8-a054-fc46daf64af3 SIMULATED</name>
                <styleUrl>#aircraft</styleUrl>
                <Point>
                  <coordinates>8.522761500845634,47.37194632820448,0</coordinates>
                </Point>
              </Placemark>
              <Placemark>
                <name>b625aef3-2a87-45d8-a054-fc46daf64af3 recent positions</name>
                <styleUrl>#ridtail</styleUrl>
                <LineString>
                  <tessellate>1</tessellate>
                  <coordinates>8.523360763516273,47.3714681604079,0 8.523321827032547,47.3715045208158,0 8.523282890548819,47.371540881223694,0 8.52324395406509,47.37157724163159,0 8.523205017581365,47.37161360203949,0 8.523166081097637,47.371649962447385,0 8.523118769605144,47.37168134446735,0 8.523070583658326,47.37171220668214,0 8.523022397711506,47.371743068896926,0 8.5229757392881,47.371774910132885,0 8.522932891599606,47.371809193747204,0 8.522890043911113,47.37184347736152,0 8.52284719622262,47.37187776097584,0 8.522804348534127,47.37191204459016,0 8.522761500845634,47.37194632820448,0</coordinates>
                </LineString>
              </Placemark>
            </Folder>
          </Folder>
        </Folder>
        <Folder>
          <name>Service Provider polling</name>
          <Folder>
            <name>E101: uss1 astm.f3411.v22a.uss.searchFlights</name>
            <Folder>
              <name>b625aef3-2a87-45d8-a054-fc46daf64af3</name>
              <Placemark>
                <name>Helicopter b625aef3-2a87-45d8-a054-fc46daf64af3 SIMULATED</name>
                <styleUrl>#aircraft</styleUrl>
                <Point>
                  <coordinates>8.522761500845634,47.37194632820448,0</coordinates>
                </Point>
              </Placemark>
              <Placemark>
                <name>b625aef3-2a87-45d8-a054-fc46daf64af3 recent positions</name>
                <styleUrl>#ridtail</styleUrl>
                <LineString>
                  <tessellate>1</tessellate>
                  <coordinates>8.523360763516273,47.3714681604079,0 8.523321827032547,47.3715045208158,0 8.523282890548819,47.371540881223694,0 8.52324395406509,47.37157724163159,0 8.523205017581365,47.37161360203949,0 8.523166081097637,47.371649962447385,0 8.523118769605144,47.37168134446735,0 8.523070583658326,47.37171220668214,0 8.523022397711506,47.371743068896926,0 8.5229757392881,47.371774910132885,0 8.522932891599606,47.371809193747204,0 8.522890043911113,47.37184347736152,0 8.52284719622262,47.37187776097584,0 8.522804348534127,47.37191204459016,0 8.522761500845634,47.37194632820448,0</coordinates>
                </LineString>
              </Placemark>
            </Folder>
          </Folder>
        </Folder>
        <Folder>
          <name>Service Provider polling</name>
          <Folder>
            <name>E107: uss1 astm.f3411.v22a.uss.searchFlights</name>
            <Folder>
              <name>b625aef3-2a87-45d8-a054-fc46daf64af3</name>
              <Placemark>
                <name>Helicopter b625aef3-2a87-45d8-a054-fc46daf64af3 SIMULATED</name>
                <styleUrl>#aircraft</styleUrl>
                <Point>
                  <coordinates>8.522761500845634,47.37194632820448,0</coordinates>
                </Point>
              </Placemark>
              <Placemark>
                <name>b625aef3-2a87-45d8-a054-fc46daf64af3 recent positions</name>
                <styleUrl>#ridtail</styleUrl>
                <LineString>
                  <tessellate>1</tessellate>
                  <coordinates>8.523360763516273,47.3714681604079,0 8.523321827032547,47.3715045208158,0 8.523282890548819,47.371540881223694,0 8.52324395406509,47.37157724163159,0 8.523205017581365,47.37161360203949,0 8.523166081097637,47.371649962447385,0 8.523118769605144,47.37168134446735,0 8.523070583658326,47.37171220668214,0 8.523022397711506,47.371743068896926,0 8.5229757392881,47.371774910132885,0 8.522932891599606,47.371809193747204,0 8.522890043911113,47.37184347736152,0 8.52284719622262,47.37187776097584,0 8.522804348534127,47.37191204459016,0 8.522761500845634,47.37194632820448,0</coordinates>
                </LineString>
              </Placemark>
            </Folder>
          </Folder>
        </Folder>
        <Folder>
          <name>Service Provider polling</name>
          <Folder>
            <name>E113: uss1 astm.f3411.v22a.uss.searchFlights</name>
            <Folder>
              <name>b625aef3-2a87-45d8-a054-fc46daf64af3</name>
              <Placemark>
                <name>Helicopter b625aef3-2a87-45d8-a054-fc46daf64af3 SIMULATED</name>
                <styleUrl>#aircraft</styleUrl>
                <Point>
                  <coordinates>8.522761500845634,47.37194632820448,0</coordinates>
                </Point>
              </Placemark>
              <Placemark>
                <name>b625aef3-2a87-45d8-a054-fc46daf64af3 recent positions</name>
                <styleUrl>#ridtail</styleUrl>
                <LineString>
                  <tessellate>1</tessellate>
                  <coordinates>8.523360763516273,47.3714681604079,0 8.523321827032547,47.3715045208158,0 8.523282890548819,47.371540881223694,0 8.52324395406509,47.37157724163159,0 8.523205017581365,47.37161360203949,0 8.523166081097637,47.371649962447385,0 8.523118769605144,47.37168134446735,0 8.523070583658326,47.37171220668214,0 8.523022397711506,47.371743068896926,0 8.5229757392881,47.371774910132885,0 8.522932891599606,47.371809193747204,0 8.522890043911113,47.37184347736152,0 8.52284719622262,47.37187776097584,0 8.522804348534127,47.37191204459016,0 8.522761500845634,47.37194632820448,0</coordinates>
                </LineString>
              </Placemark>
            </Folder>
          </Folder>
        </Folder>
        <Folder>
          <name>Service Provider polling</name>
          <Folder>
            <name>E119: uss1 astm.f3411.v22a.uss.searchFlights</name>
            <Folder>
              <name>b625aef3-2a87-45d8-a054-fc46daf64af3</name>
              <Placemark>
                <name>Helicopter b625aef3-2a87-45d8-a054-fc46daf64af3 SIMULATED</name>
                <styleUrl>#aircraft</styleUrl>
                <Point>
                  <coordinates>8.522761500845634,47.37194632820448,0</coordinates>
                </Point>
              </Placemark>
              <Placemark>
                <name>b625aef3-2a87-45d8-a054-fc46daf64af3 recent positions</name>
                <styleUrl>#ridtail</styleUrl>
                <LineString>
                  <tessellate>1</tessellate>
                  <coordinates>8.523360763516273,47.3714681604079,0 8.523321827032547,47.3715045208158,0 8.523282890548819,47.371540881223694,0 8.52324395406509,47.37157724163159,0 8.523205017581365,47.37161360203949,0 8.523166081097637,47.371649962447385,0 8.523118769605144,47.37168134446735,0 8.523070583658326,47.37171220668214,0 8.523022397711506,47.371743068896926,0 8.5229757392881,47.371774910132885,0 8.522932891599606,47.371809193747204,0 8.522890043911113,47.37184347736152,0 8.52284719622262,47.37187776097584,0 8.522804348534127,47.37191204459016,0 8.522761500845634,47.37194632820448,0</coordinates>
                </LineString>
              </Placemark>
            </Folder>
          </Folder>
        </Folder>
        <Folder>
          <name>Service Provider polling</name>
          <Folder>
            <name>E125: uss1 astm.f3411.v22a.uss.searchFlights</name>
            <Folder>
              <name>b625aef3-2a87-45d8-a054-fc46daf64af3</name>
              <Placemark>
                <name>Helicopter b625aef3-2a87-45d8-a054-fc46daf64af3 SIMULATED</name>
                <styleUrl>#aircraft</styleUrl>
                <Point>
                  <coordinates>8.522761500845634,47.37194632820448,0</coordinates>
                </Point>
              </Placemark>
              <Placemark>
                <name>b625aef3-2a87-45d8-a054-fc46daf64af3 recent positions</name>
                <styleUrl>#ridtail</styleUrl>
                <LineString>
                  <tessellate>1</tessellate>
                  <coordinates>8.523360763516273,47.3714681604079,0 8.523321827032547,47.3715045208158,0 8.523282890548819,47.371540881223694,0 8.52324395406509,47.37157724163159,0 8.523205017581365,47.37161360203949,0 8.523166081097637,47.371649962447385,0 8.523118769605144,47.37168134446735,0 8.523070583658326,47.37171220668214,0 8.523022397711506,47.371743068896926,0 8.5229757392881,47.371774910132885,0 8.522932891599606,47.371809193747204,0 8.522890043911113,47.37184347736152,0 8.52284719622262,47.37187776097584,0 8.522804348534127,47.37191204459016,0 8.522761500845634,47.37194632820448,0</coordinates>
                </LineString>
              </Placemark>
            </Folder>
          </Folder>
        </Folder>
        <Folder>
          <name>Service Provider polling</name>
          <Folder>
            <name>E131: uss1 astm.f3411.v22a.uss.searchFlights</name>
            <Folder>
              <name>b625aef3-2a87-45d8-a054-fc46daf64af3</name>
              <Placemark>
                <name>Helicopter b625aef3-2a87-45d8-a054-fc46daf64af3 SIMULATED</name>
                <styleUrl>#aircraft</styleUrl>
                <Point>
                  <coordinates>8.522761500845634,47.37194632820448,0</coordinates>
                </Point>
              </Placemark>
              <Placemark>
                <name>b625aef3-2a87-45d8-a054-fc46daf64af3 recent positions</name>
                <styleUrl>#ridtail</styleUrl>
                <LineString>
                  <tessellate>1</tessellate>
                  <coordinates>8.523360763516273,47.3714681604079,0 8.523321827032547,47.3715045208158,0 8.523282890548819,47.371540881223694,0 8.52324395406509,47.37157724163159,0 8.523205017581365,47.37161360203949,0 8.523166081097637,47.371649962447385,0 8.523118769605144,47.37168134446735,0 8.523070583658326,47.37171220668214,0 8.523022397711506,47.371743068896926,0 8.5229757392881,47.371774910132885,0 8.522932891599606,47.371809193747204,0 8.522890043911113,47.37184347736152,0 8.52284719622262,47.37187776097584,0 8.522804348534127,47.37191204459016,0 8.522761500845634,47.37194632820448,0</coordinates>
                </LineString>
              </Placemark>
            </Folder>
          </Folder>
        </Folder>
        <Folder>
          <name>Service Provider polling</name>
          <Folder>
            <name>E137: uss1 astm.f3411.v22a.uss.searchFlights</name>
            <Folder>
              <name>b625aef3-2a87-45d8-a054-fc46daf64af3</name>
              <Placemark>
                <name>Helicopter b625aef3-2a87-45d8-a054-fc46daf64af3 SIMULATED</name>
                <styleUrl>#aircraft</styleUrl>
                <Point>
                  <coordinates>8.522761500845634,47.37194632820448,0</coordinates>
                </Point>
              </Placemark>
              <Placemark>
                <name>b625aef3-2a87-45d8-a054-fc46daf64af3 recent positions</name>
                <styleUrl>#ridtail</styleUrl>
                <LineString>
                  <tessellate>1</tessellate>
                  <coordinates>8.523360763516273,47.3714681604079,0 8.523321827032547,47.3715045208158,0 8.523282890548819,47.371540881223694,0 8.52324395406509,47.37157724163159,0 8.523205017581365,47.37161360203949,0 8.523166081097637,47.371649962447385,0 8.523118769605144,47.37168134446735,0 8.523070583658326,47.37171220668214,0 8.523022397711506,47.371743068896926,0 8.5229757392881,47.371774910132885,0 8.522932891599606,47.371809193747204,0 8.522890043911113,47.37184347736152,0 8.52284719622262,47.37187776097584,0 8.522804348534127,47.37191204459016,0 8.522761500845634,47.37194632820448,0</coordinates>
                </LineString>
              </Placemark>
            </Folder>
          </Folder>
        </Folder>
        <Folder>
          <name>Service Provider polling</name>
          <Folder>
            <name>E143: uss1 astm.f3411.v22a.uss.searchFlights</name>
            <Folder>
              <name>b625aef3-2a87-45d8-a054-fc46daf64af3</name>
              <Placemark>
                <name>Helicopter b625aef3-2a87-45d8-a054-fc46daf64af3 SIMULATED</name>
                <styleUrl>#aircraft</styleUrl>
                <Point>
                  <coordinates>8.522761500845634,47.37194632820448,0</coordinates>
                </Point>
              </Placemark>
              <Placemark>
                <name>b625aef3-2a87-45d8-a054-fc46daf64af3 recent positions</name>
                <styleUrl>#ridtail</styleUrl>
                <LineString>
                  <tessellate>1</tessellate>
                  <coordinates>8.523360763516273,47.3714681604079,0 8.523321827032547,47.3715045208158,0 8.523282890548819,47.371540881223694,0 8.52324395406509,47.37157724163159,0 8.523205017581365,47.37161360203949,0 8.523166081097637,47.371649962447385,0 8.523118769605144,47.37168134446735,0 8.523070583658326,47.37171220668214,0 8.523022397711506,47.371743068896926,0 8.5229757392881,47.371774910132885,0 8.522932891599606,47.371809193747204,0 8.522890043911113,47.37184347736152,0 8.52284719622262,47.37187776097584,0 8.522804348534127,47.37191204459016,0 8.522761500845634,47.37194632820448,0</coordinates>
                </LineString>
              </Placemark>
            </Folder>
          </Folder>
        </Folder>
        <Folder>
          <name>Service Provider polling</name>
          <Folder>
            <name>E149: uss1 astm.f3411.v22a.uss.searchFlights</name>
            <Folder>
              <name>b625aef3-2a87-45d8-a054-fc46daf64af3</name>
              <Placemark>
                <name>Helicopter b625aef3-2a87-45d8-a054-fc46daf64af3 SIMULATED</name>
                <styleUrl>#aircraft</styleUrl>
                <Point>
                  <coordinates>8.522761500845634,47.37194632820448,0</coordinates>
                </Point>
              </Placemark>
              <Placemark>
                <name>b625aef3-2a87-45d8-a054-fc46daf64af3 recent positions</name>
                <styleUrl>#ridtail</styleUrl>
                <LineString>
                  <tessellate>1</tessellate>
                  <coordinates>8.523360763516273,47.3714681604079,0 8.523321827032547,47.3715045208158,0 8.523282890548819,47.371540881223694,0 8.52324395406509,47.37157724163159,0 8.523205017581365,47.37161360203949,0 8.523166081097637,47.371649962447385,0 8.523118769605144,47.37168134446735,0 8.523070583658326,47.37171220668214,0 8.523022397711506,47.371743068896926,0 8.5229757392881,47.371774910132885,0 8.522932891599606,47.371809193747204,0 8.522890043911113,47.37184347736152,0 8.52284719622262,47.37187776097584,0 8.522804348534127,47.37191204459016,0 8.522761500845634,47.37194632820448,0</coordinates>
                </LineString>
              </Placemark>
            </Folder>
          </Folder>
        </Folder>
        <Folder>
          <name>Service Provider polling</name>
          <Folder>
            <name>E155: uss1 astm.f3411.v22a.uss.searchFlights</name>
            <Folder>
              <name>b625aef3-2a87-45d8-a054-fc46daf64af3</name>
              <Placemark>
                <name>Helicopter b625aef3-2a87-45d8-a054-fc46daf64af3 SIMULATED</name>
                <styleUrl>#aircraft</styleUrl>
                <Point>
                  <coordinates>8.522761500845634,47.37194632820448,0</coordinates>
                </Point>
              </Placemark>
              <Placemark>
                <name>b625aef3-2a87-45d8-a054-fc46daf64af3 recent positions</name>
                <styleUrl>#ridtail</styleUrl>
                <LineString>
                  <tessellate>1</tessellate>
                  <coordinates>8.523166081097637,47.371649962447385,0 8.523118769605144,47.37168134446735,0 8.523070583658326,47.37171220668214,0 8.523022397711506,47.371743068896926,0 8.5229757392881,47.371774910132885,0 8.522932891599606,47.371809193747204,0 8.522890043911113,47.37184347736152,0 8.52284719622262,47.37187776097584,0 8.522804348534127,47.37191204459016,0 8.522761500845634,47.37194632820448,0</coordinates>
                </LineString>
              </Placemark>
            </Folder>
          </Folder>
        </Folder>
        <Folder>
          <name>Service Provider polling</name>
          <Folder>
            <name>E160: uss1 astm.f3411.v22a.uss.searchFlights</name>
            <Folder>
              <name>b625aef3-2a87-45d8-a054-fc46daf64af3</name>
              <Placemark>
                <name>Helicopter b625aef3-2a87-45d8-a054-fc46daf64af3 SIMULATED</name>
                <styleUrl>#aircraft</styleUrl>
                <Point>
                  <coordinates>8.522761500845634,47.37194632820448,0</coordinates>
                </Point>
              </Placemark>
              <Placemark>
                <name>b625aef3-2a87-45d8-a054-fc46daf64af3 recent positions</name>
                <styleUrl>#ridtail</styleUrl>
                <LineString>
                  <tessellate>1</tessellate>
                  <coordinates>8.523166081097637,47.371649962447385,0 8.523118769605144,47.37168134446735,0 8.523070583658326,47.37171220668214,0 8.523022397711506,47.371743068896926,0 8.5229757392881,47.371774910132885,0 8.522932891599606,47.371809193747204,0 8.522890043911113,47.37184347736152,0 8.52284719622262,47.37187776097584,0 8.522804348534127,47.37191204459016,0 8.522761500845634,47.37194632820448,0</coordinates>
                </LineString>
              </Placemark>
            </Folder>
          </Folder>
        </Folder>
        <Folder>
          <name>Service Provider polling</name>
          <Folder>
            <name>E165: uss1 astm.f3411.v22a.uss.searchFlights</name>
            <Folder>
              <name>b625aef3-2a87-45d8-a054-fc46daf64af3</name>
              <Placemark>
                <name>Helicopter b625aef3-2a87-45d8-a054-fc46daf64af3 SIMULATED</name>
                <styleUrl>#aircraft</styleUrl>
                <Point>
                  <coordinates>8.522761500845634,47.37194632820448,0</coordinates>
                </Point>
              </Placemark>
              <Placemark>
                <name>b625aef3-2a87-45d8-a054-fc46daf64af3 recent positions</name>
                <styleUrl>#ridtail</styleUrl>
                <LineString>
                  <tessellate>1</tessellate>
                  <coordinates>8.522932891599606,47.371809193747204,0 8.522890043911113,47.37184347736152,0 8.52284719622262,47.37187776097584,0 8.522804348534127,47.37191204459016,0 8.522761500845634,47.37194632820448,0</coordinates>
                </LineString>
              </Placemark>
            </Folder>
          </Folder>
        </Folder>
        <Folder>
          <name>Service Provider polling</name>
          <Folder>
            <name>E170: uss1 astm.f3411.v22a.uss.searchFlights</name>
            <Folder>
              <name>b625aef3-2a87-45d8-a054-fc46daf64af3</name>
              <Placemark>
                <name>Helicopter b625aef3-2a87-45d8-a054-fc46daf64af3 SIMULATED</name>
                <styleUrl>#aircraft</styleUrl>
                <Point>
                  <coordinates>8.522761500845634,47.37194632820448,0</coordinates>
                </Point>
              </Placemark>
              <Placemark>
                <name>b625aef3-2a87-45d8-a054-fc46daf64af3 recent positions</name>
                <styleUrl>#ridtail</styleUrl>
                <LineString>
                  <tessellate>1</tessellate>
                  <coordinates>8.522932891599606,47.371809193747204,0 8.522890043911113,47.37184347736152,0 8.52284719622262,47.37187776097584,0 8.522804348534127,47.37191204459016,0 8.522761500845634,47.37194632820448,0</coordinates>
                </LineString>
              </Placemark>
            </Folder>
          </Folder>
        </Folder>
        <Folder>
          <name>Service Provider polling</name>
          <Folder>
            <name>E175: uss1 astm.f3411.v22a.uss.searchFlights</name>
          </Folder>
        </Folder>
        <Folder>
          <name>Service Provider polling</name>
          <Folder>
            <name>E179: uss1 astm.f3411.v22a.uss.searchFlights</name>
          </Folder>
        </Folder>
        <Folder>
          <name>Service Provider polling</name>
        </Folder>
        <Folder>
          <name>Service Provider polling</name>
        </Folder>
        <Folder>
          <name>Verify all disconnected flights have been observed as disconnected</name>
        </Folder>
      </Folder>
      <Folder>
        <name/>
        <Folder>
          <name>Cleanup</name>
        </Folder>
      </Folder>
    </Folder>
  </Document>
</kml>
