<kml xmlns="http://www.opengis.net/kml/2.2" xmlns:atom="http://www.w3.org/2005/Atom" xmlns:gx="http://www.google.com/kml/ext/2.2">
  <Document>
    <Style id="QueryArea">
      <LineStyle>
        <color>ffc0c000</color>
        <width>3</width>
      </LineStyle>
      <PolyStyle>
        <color>80ffffaa</color>
      </PolyStyle>
    </Style>
    <Style id="F3548v21Accepted">
      <LineStyle>
        <color>ff00c000</color>
        <width>3</width>
      </LineStyle>
      <PolyStyle>
        <color>80c0c0c0</color>
      </PolyStyle>
    </Style>
    <Style id="F3548v21Activated">
      <LineStyle>
        <color>ff00c000</color>
        <width>3</width>
      </LineStyle>
      <PolyStyle>
        <color>8000ff00</color>
      </PolyStyle>
    </Style>
    <Style id="F3548v21Nonconforming">
      <LineStyle>
        <color>ff00ffff</color>
        <width>5</width>
      </LineStyle>
      <PolyStyle>
        <color>8000ffff</color>
      </PolyStyle>
    </Style>
    <Style id="F3548v21Contingent">
      <LineStyle>
        <color>ff0000ff</color>
        <width>5</width>
      </LineStyle>
      <PolyStyle>
        <color>80ff0000ff</color>
      </PolyStyle>
    </Style>
    <Style id="F3548v21AcceptedFuture">
      <LineStyle>
        <color>80c0c0c0</color>
        <width>1</width>
      </LineStyle>
      <PolyStyle>
        <color>00000000</color>
      </PolyStyle>
    </Style>
    <Style id="F3548v21ActivatedFuture">
      <LineStyle>
        <color>8040c040</color>
        <width>1</width>
      </LineStyle>
      <PolyStyle>
        <color>00000000</color>
      </PolyStyle>
    </Style>
    <Style id="F3548v21NonconformingFuture">
      <LineStyle>
        <color>8000ffff</color>
        <width>1</width>
      </LineStyle>
      <PolyStyle>
        <color>00000000</color>
      </PolyStyle>
    </Style>
    <Style id="F3548v21ContingentFuture">
      <LineStyle>
        <color>80ff0000ff</color>
        <width>1</width>
      </LineStyle>
      <PolyStyle>
        <color>00000000</color>
      </PolyStyle>
    </Style>
    <Style id="Planned_Nominal">
      <LineStyle>
        <color>ff00c000</color>
        <width>3</width>
      </LineStyle>
      <PolyStyle>
        <color>80808080</color>
      </PolyStyle>
    </Style>
    <Style id="InUse_Nominal">
      <LineStyle>
        <color>ff00c000</color>
        <width>3</width>
      </LineStyle>
      <PolyStyle>
        <color>8000ff00</color>
      </PolyStyle>
    </Style>
    <Style id="InUse_OffNominal">
      <LineStyle>
        <color>ff00ffff</color>
        <width>5</width>
      </LineStyle>
      <PolyStyle>
        <color>8000ff00</color>
      </PolyStyle>
    </Style>
    <Style id="InUse_Contingent">
      <LineStyle>
        <color>ff0000ff</color>
        <width>5</width>
      </LineStyle>
      <PolyStyle>
        <color>8000ff00</color>
      </PolyStyle>
    </Style>
    <Style id="unmodifiedtelemetry">
      <IconStyle>
        <scale>1.4</scale>
        <Icon>
          <href>http://maps.google.com/mapfiles/kml/shapes/placemark_circle.png</href>
        </Icon>
      </IconStyle>
    </Style>
    <Style id="modifiedtelemetry">
      <IconStyle>
        <scale>1.4</scale>
        <Icon>
          <href>http://maps.google.com/mapfiles/kml/shapes/placemark_square.png</href>
        </Icon>
      </IconStyle>
    </Style>
    <Style id="aircraft">
      <IconStyle>
        <scale>1.4</scale>
        <Icon>
          <href>http://maps.google.com/mapfiles/kml/shapes/airports.png</href>
        </Icon>
      </IconStyle>
    </Style>
    <Folder>
      <name>Awareness of relevant operational intents</name>
      <Folder>
        <name>Activated operational intent receives notification of relevant intent</name>
        <Folder>
          <name>Tested_uss plans and activates Flight 1</name>
          <Folder>
            <name>E3: uss1_dss astm.f3548.v21.dss.queryOperationalIntentReferences</name>
            <Placemark>
              <name>area_of_interest</name>
              <styleUrl>#QueryArea</styleUrl>
              <description><![CDATA[(no operational intent references found)]]></description>
              <TimeSpan>
                <begin>2026-09-26T01:52:40.838242+00:00</begin>
                <end>2026-09-26T02:37:40.838242+00:00</end>
              </TimeSpan>
              <MultiGeometry>
                <Polygon>
                  <altitudeMode>absolute</altitudeMode>
                  <outerBoundaryIs>
                    <LinearRing>
                      <coordinates>-96.77075638365808,32.71722787387462,111.32272931603475 -96.77075638365808,32.72700716221378,111.32272931603475 -96.75192818121407,32.72700716221378,111.32272931603475 -96.75192818121407,32.71722787387462,111.32272931603475</coordinates>
                    </LinearRing>
                  </outerBoundaryIs>
                </Polygon>
                <Polygon>
                  <altitudeMode>absolute</altitudeMode>
                  <outerBoundaryIs>
                    <LinearRing>
                      <coordinates>-96.77075638365808,32.71722787387462,196.32272931603475 -96.77075638365808,32.72700716221378,196.32272931603475 -96.75192818121407,32.72700716221378,196.32272931603475 -96.75192818121407,32.71722787387462,196.32272931603475</coordinates>
                    </LinearRing>
                  </outerBoundaryIs>
                </Polygon>
                <Polygon>
                  <altitudeMode>absolute</altitudeMode>
                  <outerBoundaryIs>
                    <LinearRing>
                      <coordinates>-96.77075638365808,32.71722787387462,111.32272931603475 -96.77075638365808,32.71722787387462,196.32272931603475 -96.77075638365808,32.72700716221378,196.32272931603475 -96.77075638365808,32.72700716221378,111.32272931603475</coordinates>
                    </LinearRing>
                  </outerBoundaryIs>
                </Polygon>
                <Polygon>
                  <altitudeMode>absolute</altitudeMode>
                  <outerBoundaryIs>
                    <LinearRing>
                      <coordinates>-96.77075638365808,32.72700716221378,111.32272931603475 -96.77075638365808,32.72700716221378,196.32272931603475 -96.75192818121407,32.72700716221378,196.32272931603475 -96.75192818121407,32.72700716221378,111.32272931603475</coordinates>
                    </LinearRing>
                  </outerBoundaryIs>
                </Polygon>
                <Polygon>
                  <altitudeMode>absolute</altitudeMode>
                  <outerBoundaryIs>
                    <LinearRing>
                      <coordinates>-96.75192818121407,32.72700716221378,111.32272931603475 -96.75192818121407,32.72700716221378,196.32272931603475 -96.75192818121407,32.71722787387462,196.32272931603475 -96.75192818121407,32.71722787387462,111.32272931603475</coordinates>
                    </LinearRing>
                  </outerBoundaryIs>
                </Polygon>
                <Polygon>
                  <altitudeMode>absolute</altitudeMode>
                  <outerBoundaryIs>
                    <LinearRing>
                      <coordinates>-96.75192818121407,32.71722787387462,111.32272931603475 -96.75192818121407,32.71722787387462,196.32272931603475 -96.77075638365808,32.71722787387462,196.32272931603475 -96.77075638365808,32.71722787387462,111.32272931603475</coordinates>
                    </LinearRing>
                  </outerBoundaryIs>
                </Polygon>
              </MultiGeometry>
            </Placemark>
          </Folder>
          <Folder>
            <name>E5: uss2_core interuss.automated_testing.flight_planning.v1.UpsertFlightPlan</name>
            <Folder>
              <name>Activity Completed, flight Planned</name>
              <Placemark>
                <name>Volume 0</name>
                <styleUrl>#Planned_Nominal</styleUrl>
                <TimeSpan>
                  <begin>2026-09-26T01:52:40.838242+00:00</begin>
                  <end>2026-09-26T02:37:40.838242+00:00</end>
                </TimeSpan>
                <MultiGeometry>
                  <Polygon>
                    <altitudeMode>absolute</altitudeMode>
                    <outerBoundaryIs>
                      <LinearRing>
                        <coordinates>-96.75554363065478,32.7203378027379,111.32663298946906 -96.76859238943746,32.721120285779804,111.32663298946906 -96.76566899568584,32.725709811277646,111.32663298946906 -96.76232259274505,32.72632938884533,111.32663298946906</coordinates>
                      </LinearRing>
                    </outerBoundaryIs>
                  </Polygon>
                  <Polygon>
                    <altitudeMode>absolute</altitudeMode>
                    <outerBoundaryIs>
                      <LinearRing>
                        <coordinates>-96.75554363065478,32.7203378027379,196.32663298946906 -96.76859238943746,32.721120285779804,196.32663298946906 -96.76566899568584,32.725709811277646,196.32663298946906 -96.76232259274505,32.72632938884533,196.32663298946906</coordinates>
                      </LinearRing>
                    </outerBoundaryIs>
                  </Polygon>
                  <Polygon>
                    <altitudeMode>absolute</altitudeMode>
                    <outerBoundaryIs>
                      <LinearRing>
                        <coordinates>-96.75554363065478,32.7203378027379,111.32663298946906 -96.75554363065478,32.7203378027379,196.32663298946906 -96.76859238943746,32.721120285779804,196.32663298946906 -96.76859238943746,32.721120285779804,111.32663298946906</coordinates>
                      </LinearRing>
                    </outerBoundaryIs>
                  </Polygon>
                  <Polygon>
                    <altitudeMode>absolute</altitudeMode>
                    <outerBoundaryIs>
                      <LinearRing>
                        <coordinates>-96.76859238943746,32.721120285779804,111.32663298946906 -96.76859238943746,32.721120285779804,196.32663298946906 -96.76566899568584,32.725709811277646,196.32663298946906 -96.76566899568584,32.725709811277646,111.32663298946906</coordinates>
                      </LinearRing>
                    </outerBoundaryIs>
                  </Polygon>
                  <Polygon>
                    <altitudeMode>absolute</altitudeMode>
                    <outerBoundaryIs>
                      <LinearRing>
                        <coordinates>-96.76566899568584,32.725709811277646,111.32663298946906 -96.76566899568584,32.725709811277646,196.32663298946906 -96.76232259274505,32.72632938884533,196.32663298946906 -96.76232259274505,32.72632938884533,111.32663298946906</coordinates>
                      </LinearRing>
                    </outerBoundaryIs>
                  </Polygon>
                  <Polygon>
                    <altitudeMode>absolute</altitudeMode>
                    <outerBoundaryIs>
                      <LinearRing>
                        <coordinates>-96.76232259274505,32.72632938884533,111.32663298946906 -96.76232259274505,32.72632938884533,196.32663298946906 -96.75554363065478,32.7203378027379,196.32663298946906 -96.75554363065478,32.7203378027379,111.32663298946906</coordinates>
                      </LinearRing>
                    </outerBoundaryIs>
                  </Polygon>
                </MultiGeometry>
              </Placemark>
            </Folder>
          </Folder>
          <Folder>
            <name>E9: uss1_dss astm.f3548.v21.dss.queryOperationalIntentReferences</name>
            <Placemark>
              <name>area_of_interest</name>
              <styleUrl>#QueryArea</styleUrl>
              <description><![CDATA[<ul><li>uss2's Accepted 9f66cfb0-7f7b-43f3-b88b-ec4a7a731d59[1]</li></ul>]]></description>
              <TimeSpan>
                <begin>2026-09-26T01:52:40.838242+00:00</begin>
                <end>2026-09-26T02:37:40.838242+00:00</end>
              </TimeSpan>
              <MultiGeometry>
                <Polygon>
                  <altitudeMode>absolute</altitudeMode>
                  <outerBoundaryIs>
                    <LinearRing>
                      <coordinates>-96.77075638365808,32.71722787387462,111.32272931603475 -96.77075638365808,32.72700716221378,111.32272931603475 -96.75192818121407,32.72700716221378,111.32272931603475 -96.75192818121407,32.71722787387462,111.32272931603475</coordinates>
                    </LinearRing>
                  </outerBoundaryIs>
                </Polygon>
                <Polygon>
                  <altitudeMode>absolute</altitudeMode>
                  <outerBoundaryIs>
                    <LinearRing>
                      <coordinates>-96.77075638365808,32.71722787387462,196.32272931603475 -96.77075638365808,32.72700716221378,196.32272931603475 -96.75192818121407,32.72700716221378,196.32272931603475 -96.75192818121407,32.71722787387462,196.32272931603475</coordinates>
                    </LinearRing>
                  </outerBoundaryIs>
                </Polygon>
                <Polygon>
                  <altitudeMode>absolute</altitudeMode>
                  <outerBoundaryIs>
                    <LinearRing>
                      <coordinates>-96.77075638365808,32.71722787387462,111.32272931603475 -96.77075638365808,32.71722787387462,196.32272931603475 -96.77075638365808,32.72700716221378,196.32272931603475 -96.77075638365808,32.72700716221378,111.32272931603475</coordinates>
                    </LinearRing>
                  </outerBoundaryIs>
                </Polygon>
                <Polygon>
                  <altitudeMode>absolute</altitudeMode>
                  <outerBoundaryIs>
                    <LinearRing>
                      <coordinates>-96.77075638365808,32.72700716221378,111.32272931603475 -96.77075638365808,32.72700716221378,196.32272931603475 -96.75192818121407,32.72700716221378,196.32272931603475 -96.75192818121407,32.72700716221378,111.32272931603475</coordinates>
                    </LinearRing>
                  </outerBoundaryIs>
                </Polygon>
                <Polygon>
                  <altitudeMode>absolute</altitudeMode>
                  <outerBoundaryIs>
                    <LinearRing>
                      <coordinates>-96.75192818121407,32.72700716221378,111.32272931603475 -96.75192818121407,32.72700716221378,196.32272931603475 -96.75192818121407,32.71722787387462,196.32272931603475 -96.75192818121407,32.71722787387462,111.32272931603475</coordinates>
                    </LinearRing>
                  </outerBoundaryIs>
                </Polygon>
                <Polygon>
                  <altitudeMode>absolute</altitudeMode>
                  <outerBoundaryIs>
                    <LinearRing>
                      <coordinates>-96.75192818121407,32.71722787387462,111.32272931603475 -96.75192818121407,32.71722787387462,196.32272931603475 -96.77075638365808,32.71722787387462,196.32272931603475 -96.77075638365808,32.71722787387462,111.32272931603475</coordinates>
                    </LinearRing>
                  </outerBoundaryIs>
                </Polygon>
              </MultiGeometry>
            </Placemark>
          </Folder>
          <Folder>
            <name>E13: uss2_core astm.f3548.v21.uss.getOperationalIntentDetails</name>
            <Folder>
              <name>uss2's P0 Accepted 9f66cfb0-7f7b-43f3-b88b-ec4a7a731d59[1] @ qoC6Ix-gUxq0UZl7SOzwsb2bqJ1e7KyCivDaQosFK20_</name>
              <Placemark>
                <name>Nominal volume 0</name>
                <styleUrl>#F3548v21Accepted</styleUrl>
                <TimeSpan>
                  <begin>2026-09-26T01:52:41.871711+00:00</begin>
                  <end>2026-09-26T02:37:40.838242+00:00</end>
                </TimeSpan>
                <MultiGeometry>
                  <Polygon>
                    <altitudeMode>absolute</altitudeMode>
                    <outerBoundaryIs>
                      <LinearRing>
                        <coordinates>-96.75554363065478,32.7203378027379,111.32663298946906 -96.76859238943746,32.721120285779804,111.32663298946906 -96.76566899568584,32.725709811277646,111.32663298946906 -96.76232259274505,32.72632938884533,111.32663298946906</coordinates>
                      </LinearRing>
                    </outerBoundaryIs>
                  </Polygon>
                  <Polygon>
                    <altitudeMode>absolute</altitudeMode>
                    <outerBoundaryIs>
                      <LinearRing>
                        <coordinates>-96.75554363065478,32.7203378027379,196.32663298946906 -96.76859238943746,32.721120285779804,196.32663298946906 -96.76566899568584,32.725709811277646,196.32663298946906 -96.76232259274505,32.72632938884533,196.32663298946906</coordinates>
                      </LinearRing>
                    </outerBoundaryIs>
                  </Polygon>
                  <Polygon>
                    <altitudeMode>absolute</altitudeMode>
                    <outerBoundaryIs>
                      <LinearRing>
                        <coordinates>-96.75554363065478,32.7203378027379,111.32663298946906 -96.75554363065478,32.7203378027379,196.32663298946906 -96.76859238943746,32.721120285779804,196.32663298946906 -96.76859238943746,32.721120285779804,111.32663298946906</coordinates>
                      </LinearRing>
                    </outerBoundaryIs>
                  </Polygon>
                  <Polygon>
                    <altitudeMode>absolute</altitudeMode>
                    <outerBoundaryIs>
                      <LinearRing>
                        <coordinates>-96.76859238943746,32.721120285779804,111.32663298946906 -96.76859238943746,32.721120285779804,196.32663298946906 -96.76566899568584,32.725709811277646,196.32663298946906 -96.76566899568584,32.725709811277646,111.32663298946906</coordinates>
                      </LinearRing>
                    </outerBoundaryIs>
                  </Polygon>
                  <Polygon>
                    <altitudeMode>absolute</altitudeMode>
                    <outerBoundaryIs>
                      <LinearRing>
                        <coordinates>-96.76566899568584,32.725709811277646,111.32663298946906 -96.76566899568584,32.725709811277646,196.32663298946906 -96.76232259274505,32.72632938884533,196.32663298946906 -96.76232259274505,32.72632938884533,111.32663298946906</coordinates>
                      </LinearRing>
                    </outerBoundaryIs>
                  </Polygon>
                  <Polygon>
                    <altitudeMode>absolute</altitudeMode>
                    <outerBoundaryIs>
                      <LinearRing>
                        <coordinates>-96.76232259274505,32.72632938884533,111.32663298946906 -96.76232259274505,32.72632938884533,196.32663298946906 -96.75554363065478,32.7203378027379,196.32663298946906 -96.75554363065478,32.7203378027379,111.32663298946906</coordinates>
                      </LinearRing>
                    </outerBoundaryIs>
                  </Polygon>
                </MultiGeometry>
              </Placemark>
            </Folder>
          </Folder>
          <Folder>
            <name>E22: uss1_dss astm.f3548.v21.dss.queryOperationalIntentReferences</name>
            <Placemark>
              <name>area_of_interest</name>
              <styleUrl>#QueryArea</styleUrl>
              <description><![CDATA[<ul><li>uss2's Accepted 9f66cfb0-7f7b-43f3-b88b-ec4a7a731d59[1]</li></ul>]]></description>
              <TimeSpan>
                <begin>2026-09-26T01:52:40.838242+00:00</begin>
                <end>2026-09-26T02:37:40.838242+00:00</end>
              </TimeSpan>
              <MultiGeometry>
                <Polygon>
                  <altitudeMode>absolute</altitudeMode>
                  <outerBoundaryIs>
                    <LinearRing>
                      <coordinates>-96.77075638365808,32.71722787387462,111.32272931603475 -96.77075638365808,32.72700716221378,111.32272931603475 -96.75192818121407,32.72700716221378,111.32272931603475 -96.75192818121407,32.71722787387462,111.32272931603475</coordinates>
                    </LinearRing>
                  </outerBoundaryIs>
                </Polygon>
                <Polygon>
                  <altitudeMode>absolute</altitudeMode>
                  <outerBoundaryIs>
                    <LinearRing>
                      <coordinates>-96.77075638365808,32.71722787387462,196.32272931603475 -96.77075638365808,32.72700716221378,196.32272931603475 -96.75192818121407,32.72700716221378,196.32272931603475 -96.75192818121407,32.71722787387462,196.32272931603475</coordinates>
                    </LinearRing>
                  </outerBoundaryIs>
                </Polygon>
                <Polygon>
                  <altitudeMode>absolute</altitudeMode>
                  <outerBoundaryIs>
                    <LinearRing>
                      <coordinates>-96.77075638365808,32.71722787387462,111.32272931603475 -96.77075638365808,32.71722787387462,196.32272931603475 -96.77075638365808,32.72700716221378,196.32272931603475 -96.77075638365808,32.72700716221378,111.32272931603475</coordinates>
                    </LinearRing>
                  </outerBoundaryIs>
                </Polygon>
                <Polygon>
                  <altitudeMode>absolute</altitudeMode>
                  <outerBoundaryIs>
                    <LinearRing>
                      <coordinates>-96.77075638365808,32.72700716221378,111.32272931603475 -96.77075638365808,32.72700716221378,196.32272931603475 -96.75192818121407,32.72700716221378,196.32272931603475 -96.75192818121407,32.72700716221378,111.32272931603475</coordinates>
                    </LinearRing>
                  </outerBoundaryIs>
                </Polygon>
                <Polygon>
                  <altitudeMode>absolute</altitudeMode>
                  <outerBoundaryIs>
                    <LinearRing>
                      <coordinates>-96.75192818121407,32.72700716221378,111.32272931603475 -96.75192818121407,32.72700716221378,196.32272931603475 -96.75192818121407,32.71722787387462,196.32272931603475 -96.75192818121407,32.71722787387462,111.32272931603475</coordinates>
                    </LinearRing>
                  </outerBoundaryIs>
                </Polygon>
                <Polygon>
                  <altitudeMode>absolute</altitudeMode>
                  <outerBoundaryIs>
                    <LinearRing>
                      <coordinates>-96.75192818121407,32.71722787387462,111.32272931603475 -96.75192818121407,32.71722787387462,196.32272931603475 -96.77075638365808,32.71722787387462,196.32272931603475 -96.77075638365808,32.71722787387462,111.32272931603475</coordinates>
                    </LinearRing>
                  </outerBoundaryIs>
                </Polygon>
              </MultiGeometry>
            </Placemark>
          </Folder>
          <Folder>
            <name>E24: uss2_core interuss.automated_testing.flight_planning.v1.UpsertFlightPlan</name>
            <Folder>
              <name>Activity Completed, flight OkToFly</name>
              <Placemark>
                <name>Volume 0</name>
                <styleUrl>#InUse_Nominal</styleUrl>
                <TimeSpan>
                  <begin>2026-09-26T01:52:40.838242+00:00</begin>
                  <end>2026-09-26T02:37:40.838242+00:00</end>
                </TimeSpan>
                <MultiGeometry>
                  <Polygon>
                    <altitudeMode>absolute</altitudeMode>
                    <outerBoundaryIs>
                      <LinearRing>
                        <coordinates>-96.75554363065478,32.7203378027379,111.32663298946906 -96.76859238943746,32.721120285779804,111.32663298946906 -96.76566899568584,32.725709811277646,111.32663298946906 -96.76232259274505,32.72632938884533,111.32663298946906</coordinates>
                      </LinearRing>
                    </outerBoundaryIs>
                  </Polygon>
                  <Polygon>
                    <altitudeMode>absolute</altitudeMode>
                    <outerBoundaryIs>
                      <LinearRing>
                        <coordinates>-96.75554363065478,32.7203378027379,196.32663298946906 -96.76859238943746,32.721120285779804,196.32663298946906 -96.76566899568584,32.725709811277646,196.32663298946906 -96.76232259274505,32.72632938884533,196.32663298946906</coordinates>
                      </LinearRing>
                    </outerBoundaryIs>
                  </Polygon>
                  <Polygon>
                    <altitudeMode>absolute</altitudeMode>
                    <outerBoundaryIs>
                      <LinearRing>
                        <coordinates>-96.75554363065478,32.7203378027379,111.32663298946906 -96.75554363065478,32.7203378027379,196.32663298946906 -96.76859238943746,32.721120285779804,196.32663298946906 -96.76859238943746,32.721120285779804,111.32663298946906</coordinates>
                      </LinearRing>
                    </outerBoundaryIs>
                  </Polygon>
                  <Polygon>
                    <altitudeMode>absolute</altitudeMode>
                    <outerBoundaryIs>
                      <LinearRing>
                        <coordinates>-96.76859238943746,32.721120285779804,111.32663298946906 -96.76859238943746,32.721120285779804,196.32663298946906 -96.76566899568584,32.725709811277646,196.32663298946906 -96.76566899568584,32.725709811277646,111.32663298946906</coordinates>
                      </LinearRing>
                    </outerBoundaryIs>
                  </Polygon>
                  <Polygon>
                    <altitudeMode>absolute</altitudeMode>
                    <outerBoundaryIs>
                      <LinearRing>
                        <coordinates>-96.76566899568584,32.725709811277646,111.32663298946906 -96.76566899568584,32.725709811277646,196.32663298946906 -96.76232259274505,32.72632938884533,196.32663298946906 -96.76232259274505,32.72632938884533,111.32663298946906</coordinates>
                      </LinearRing>
                    </outerBoundaryIs>
                  </Polygon>
                  <Polygon>
                    <altitudeMode>absolute</altitudeMode>
                    <outerBoundaryIs>
                      <LinearRing>
                        <coordinates>-96.76232259274505,32.72632938884533,111.32663298946906 -96.76232259274505,32.72632938884533,196.32663298946906 -96.75554363065478,32.7203378027379,196.32663298946906 -96.75554363065478,32.7203378027379,111.32663298946906</coordinates>
                      </LinearRing>
                    </outerBoundaryIs>
                  </Polygon>
                </MultiGeometry>
              </Placemark>
            </Folder>
          </Folder>
          <Folder>
            <name>E28: uss1_dss astm.f3548.v21.dss.queryOperationalIntentReferences</name>
            <Placemark>
              <name>area_of_interest</name>
              <styleUrl>#QueryArea</styleUrl>
              <description><![CDATA[<ul><li>uss2's Activated 9f66cfb0-7f7b-43f3-b88b-ec4a7a731d59[2]</li></ul>]]></description>
              <TimeSpan>
                <begin>2026-09-26T01:52:40.838242+00:00</begin>
                <end>2026-09-26T02:37:40.838242+00:00</end>
              </TimeSpan>
              <MultiGeometry>
                <Polygon>
                  <altitudeMode>absolute</altitudeMode>
                  <outerBoundaryIs>
                    <LinearRing>
                      <coordinates>-96.77075638365808,32.71722787387462,111.32272931603475 -96.77075638365808,32.72700716221378,111.32272931603475 -96.75192818121407,32.72700716221378,111.32272931603475 -96.75192818121407,32.71722787387462,111.32272931603475</coordinates>
                    </LinearRing>
                  </outerBoundaryIs>
                </Polygon>
                <Polygon>
                  <altitudeMode>absolute</altitudeMode>
                  <outerBoundaryIs>
                    <LinearRing>
                      <coordinates>-96.77075638365808,32.71722787387462,196.32272931603475 -96.77075638365808,32.72700716221378,196.32272931603475 -96.75192818121407,32.72700716221378,196.32272931603475 -96.75192818121407,32.71722787387462,196.32272931603475</coordinates>
                    </LinearRing>
                  </outerBoundaryIs>
                </Polygon>
                <Polygon>
                  <altitudeMode>absolute</altitudeMode>
                  <outerBoundaryIs>
                    <LinearRing>
                      <coordinates>-96.77075638365808,32.71722787387462,111.32272931603475 -96.77075638365808,32.71722787387462,196.32272931603475 -96.77075638365808,32.72700716221378,196.32272931603475 -96.77075638365808,32.72700716221378,111.32272931603475</coordinates>
                    </LinearRing>
                  </outerBoundaryIs>
                </Polygon>
                <Polygon>
                  <altitudeMode>absolute</altitudeMode>
                  <outerBoundaryIs>
                    <LinearRing>
                      <coordinates>-96.77075638365808,32.72700716221378,111.32272931603475 -96.77075638365808,32.72700716221378,196.32272931603475 -96.75192818121407,32.72700716221378,196.32272931603475 -96.75192818121407,32.72700716221378,111.32272931603475</coordinates>
                    </LinearRing>
                  </outerBoundaryIs>
                </Polygon>
                <Polygon>
                  <altitudeMode>absolute</altitudeMode>
                  <outerBoundaryIs>
                    <LinearRing>
                      <coordinates>-96.75192818121407,32.72700716221378,111.32272931603475 -96.75192818121407,32.72700716221378,196.32272931603475 -96.75192818121407,32.71722787387462,196.32272931603475 -96.75192818121407,32.71722787387462,111.32272931603475</coordinates>
                    </LinearRing>
                  </outerBoundaryIs>
                </Polygon>
                <Polygon>
                  <altitudeMode>absolute</altitudeMode>
                  <outerBoundaryIs>
                    <LinearRing>
                      <coordinates>-96.75192818121407,32.71722787387462,111.32272931603475 -96.75192818121407,32.71722787387462,196.32272931603475 -96.77075638365808,32.71722787387462,196.32272931603475 -96.77075638365808,32.71722787387462,111.32272931603475</coordinates>
                    </LinearRing>
                  </outerBoundaryIs>
                </Polygon>
              </MultiGeometry>
            </Placemark>
          </Folder>
          <Folder>
            <name>E33: uss2_core astm.f3548.v21.uss.getOperationalIntentDetails</name>
            <Folder>
              <name>uss2's P0 Activated 9f66cfb0-7f7b-43f3-b88b-ec4a7a731d59[2] @ rLGnnAS9JuY0zOi85kSsMjH1PYwdsHD3w.54bfXTkCs_</name>
              <Placemark>
                <name>Nominal volume 0</name>
                <styleUrl>#F3548v21Activated</styleUrl>
                <TimeSpan>
                  <begin>2026-09-26T01:52:42.047825+00:00</begin>
                  <end>2026-09-26T02:37:40.838242+00:00</end>
                </TimeSpan>
                <MultiGeometry>
                  <Polygon>
                    <altitudeMode>absolute</altitudeMode>
                    <outerBoundaryIs>
                      <LinearRing>
                        <coordinates>-96.75554363065478,32.7203378027379,111.32663298946906 -96.76859238943746,32.721120285779804,111.32663298946906 -96.76566899568584,32.725709811277646,111.32663298946906 -96.76232259274505,32.72632938884533,111.32663298946906</coordinates>
                      </LinearRing>
                    </outerBoundaryIs>
                  </Polygon>
                  <Polygon>
                    <altitudeMode>absolute</altitudeMode>
                    <outerBoundaryIs>
                      <LinearRing>
                        <coordinates>-96.75554363065478,32.7203378027379,196.32663298946906 -96.76859238943746,32.721120285779804,196.32663298946906 -96.76566899568584,32.725709811277646,196.32663298946906 -96.76232259274505,32.72632938884533,196.32663298946906</coordinates>
                      </LinearRing>
                    </outerBoundaryIs>
                  </Polygon>
                  <Polygon>
                    <altitudeMode>absolute</altitudeMode>
                    <outerBoundaryIs>
                      <LinearRing>
                        <coordinates>-96.75554363065478,32.7203378027379,111.32663298946906 -96.75554363065478,32.7203378027379,196.32663298946906 -96.76859238943746,32.721120285779804,196.32663298946906 -96.76859238943746,32.721120285779804,111.32663298946906</coordinates>
                      </LinearRing>
                    </outerBoundaryIs>
                  </Polygon>
                  <Polygon>
                    <altitudeMode>absolute</altitudeMode>
                    <outerBoundaryIs>
                      <LinearRing>
                        <coordinates>-96.76859238943746,32.721120285779804,111.32663298946906 -96.76859238943746,32.721120285779804,196.32663298946906 -96.76566899568584,32.725709811277646,196.32663298946906 -96.76566899568584,32.725709811277646,111.32663298946906</coordinates>
                      </LinearRing>
                    </outerBoundaryIs>
                  </Polygon>
                  <Polygon>
                    <altitudeMode>absolute</altitudeMode>
                    <outerBoundaryIs>
                      <LinearRing>
                        <coordinates>-96.76566899568584,32.725709811277646,111.32663298946906 -96.76566899568584,32.725709811277646,196.32663298946906 -96.76232259274505,32.72632938884533,196.32663298946906 -96.76232259274505,32.72632938884533,111.32663298946906</coordinates>
                      </LinearRing>
                    </outerBoundaryIs>
                  </Polygon>
                  <Polygon>
                    <altitudeMode>absolute</altitudeMode>
                    <outerBoundaryIs>
                      <LinearRing>
                        <coordinates>-96.76232259274505,32.72632938884533,111.32663298946906 -96.76232259274505,32.72632938884533,196.32663298946906 -96.75554363065478,32.7203378027379,196.32663298946906 -96.75554363065478,32.7203378027379,111.32663298946906</coordinates>
                      </LinearRing>
                    </outerBoundaryIs>
                  </Polygon>
                </MultiGeometry>
              </Placemark>
            </Folder>
          </Folder>
        </Folder>
        <Folder>
          <name>Mock_uss plans Flight 2</name>
          <Folder>
            <name>E44: uss1_dss astm.f3548.v21.dss.queryOperationalIntentReferences</name>
            <Placemark>
              <name>area_of_interest</name>
              <styleUrl>#QueryArea</styleUrl>
              <description><![CDATA[<ul><li>uss2's Activated 9f66cfb0-7f7b-43f3-b88b-ec4a7a731d59[2]</li></ul>]]></description>
              <TimeSpan>
                <begin>2026-09-26T01:52:40.838242+00:00</begin>
                <end>2026-09-26T02:37:40.838242+00:00</end>
              </TimeSpan>
              <MultiGeometry>
                <Polygon>
                  <altitudeMode>absolute</altitudeMode>
                  <outerBoundaryIs>
                    <LinearRing>
                      <coordinates>-96.77075638365808,32.71722787387462,111.32272931603475 -96.77075638365808,32.72700716221378,111.32272931603475 -96.75192818121407,32.72700716221378,111.32272931603475 -96.75192818121407,32.71722787387462,111.32272931603475</coordinates>
                    </LinearRing>
                  </outerBoundaryIs>
                </Polygon>
                <Polygon>
                  <altitudeMode>absolute</altitudeMode>
                  <outerBoundaryIs>
                    <LinearRing>
                      <coordinates>-96.77075638365808,32.71722787387462,196.32272931603475 -96.77075638365808,32.72700716221378,196.32272931603475 -96.75192818121407,32.72700716221378,196.32272931603475 -96.75192818121407,32.71722787387462,196.32272931603475</coordinates>
                    </LinearRing>
                  </outerBoundaryIs>
                </Polygon>
                <Polygon>
                  <altitudeMode>absolute</altitudeMode>
                  <outerBoundaryIs>
                    <LinearRing>
                      <coordinates>-96.77075638365808,32.71722787387462,111.32272931603475 -96.77075638365808,32.71722787387462,196.32272931603475 -96.77075638365808,32.72700716221378,196.32272931603475 -96.77075638365808,32.72700716221378,111.32272931603475</coordinates>
                    </LinearRing>
                  </outerBoundaryIs>
                </Polygon>
                <Polygon>
                  <altitudeMode>absolute</altitudeMode>
                  <outerBoundaryIs>
                    <LinearRing>
                      <coordinates>-96.77075638365808,32.72700716221378,111.32272931603475 -96.77075638365808,32.72700716221378,196.32272931603475 -96.75192818121407,32.72700716221378,196.32272931603475 -96.75192818121407,32.72700716221378,111.32272931603475</coordinates>
                    </LinearRing>
                  </outerBoundaryIs>
                </Polygon>
                <Polygon>
                  <altitudeMode>absolute</altitudeMode>
                  <outerBoundaryIs>
                    <LinearRing>
                      <coordinates>-96.75192818121407,32.72700716221378,111.32272931603475 -96.75192818121407,32.72700716221378,196.32272931603475 -96.75192818121407,32.71722787387462,196.32272931603475 -96.75192818121407,32.71722787387462,111.32272931603475</coordinates>
                    </LinearRing>
                  </outerBoundaryIs>
                </Polygon>
                <Polygon>
                  <altitudeMode>absolute</altitudeMode>
                  <outerBoundaryIs>
                    <LinearRing>
                      <coordinates>-96.75192818121407,32.71722787387462,111.32272931603475 -96.75192818121407,32.71722787387462,196.32272931603475 -96.77075638365808,32.71722787387462,196.32272931603475 -96.77075638365808,32.71722787387462,111.32272931603475</coordinates>
                    </LinearRing>
                  </outerBoundaryIs>
                </Polygon>
              </MultiGeometry>
            </Placemark>
          </Folder>
          <Folder>
            <name>E46: mock_uss interuss.automated_testing.flight_planning.v1.UpsertFlightPlan</name>
            <Folder>
              <name>Activity Completed, flight Planned</name>
              <Placemark>
                <name>Volume 0</name>
                <styleUrl>#Planned_Nominal</styleUrl>
                <TimeSpan>
                  <begin>2026-09-26T01:52:40.838242+00:00</begin>
                  <end>2026-09-26T02:37:40.838242+00:00</end>
                </TimeSpan>
                <MultiGeometry>
                  <Polygon>
                    <altitudeMode>absolute</altitudeMode>
                    <outerBoundaryIs>
                      <LinearRing>
                        <coordinates>-96.76161769541804,32.72613433523766,120.31678560563748 -96.75674813349542,32.72700716221378,120.31678560563748 -96.75192818121407,32.71722787387462,120.31678560563748 -96.77075638365808,32.72021750892743,120.31678560563748 -96.75524248313734,32.72021448179331,120.31678560563748</coordinates>
                      </LinearRing>
                    </outerBoundaryIs>
                  </Polygon>
                  <Polygon>
                    <altitudeMode>absolute</altitudeMode>
                    <outerBoundaryIs>
                      <LinearRing>
                        <coordinates>-96.76161769541804,32.72613433523766,178.31678560563748 -96.75674813349542,32.72700716221378,178.31678560563748 -96.75192818121407,32.71722787387462,178.31678560563748 -96.77075638365808,32.72021750892743,178.31678560563748 -96.75524248313734,32.72021448179331,178.31678560563748</coordinates>
                      </LinearRing>
                    </outerBoundaryIs>
                  </Polygon>
                  <Polygon>
                    <altitudeMode>absolute</altitudeMode>
                    <outerBoundaryIs>
                      <LinearRing>
                        <coordinates>-96.76161769541804,32.72613433523766,120.31678560563748 -96.76161769541804,32.72613433523766,178.31678560563748 -96.75674813349542,32.72700716221378,178.31678560563748 -96.75674813349542,32.72700716221378,120.31678560563748</coordinates>
                      </LinearRing>
                    </outerBoundaryIs>
                  </Polygon>
                  <Polygon>
                    <altitudeMode>absolute</altitudeMode>
                    <outerBoundaryIs>
                      <LinearRing>
                        <coordinates>-96.75674813349542,32.72700716221378,120.31678560563748 -96.75674813349542,32.72700716221378,178.31678560563748 -96.75192818121407,32.71722787387462,178.31678560563748 -96.75192818121407,32.71722787387462,120.31678560563748</coordinates>
                      </LinearRing>
                    </outerBoundaryIs>
                  </Polygon>
                  <Polygon>
                    <altitudeMode>absolute</altitudeMode>
                    <outerBoundaryIs>
                      <LinearRing>
                        <coordinates>-96.75192818121407,32.71722787387462,120.31678560563748 -96.75192818121407,32.71722787387462,178.31678560563748 -96.77075638365808,32.72021750892743,178.31678560563748 -96.77075638365808,32.72021750892743,120.31678560563748</coordinates>
                      </LinearRing>
                    </outerBoundaryIs>
                  </Polygon>
                  <Polygon>
                    <altitudeMode>absolute</altitudeMode>
                    <outerBoundaryIs>
                      <LinearRing>
                        <coordinates>-96.77075638365808,32.72021750892743,120.31678560563748 -96.77075638365808,32.72021750892743,178.31678560563748 -96.75524248313734,32.72021448179331,178.31678560563748 -96.75524248313734,32.72021448179331,120.31678560563748</coordinates>
                      </LinearRing>
                    </outerBoundaryIs>
                  </Polygon>
                  <Polygon>
                    <altitudeMode>absolute</altitudeMode>
                    <outerBoundaryIs>
                      <LinearRing>
                        <coordinates>-96.75524248313734,32.72021448179331,120.31678560563748 -96.75524248313734,32.72021448179331,178.31678560563748 -96.76161769541804,32.72613433523766,178.31678560563748 -96.76161769541804,32.72613433523766,120.31678560563748</coordinates>
                      </LinearRing>
                    </outerBoundaryIs>
                  </Polygon>
                </MultiGeometry>
              </Placemark>
            </Folder>
          </Folder>
          <Folder>
            <name>E50: uss1_dss astm.f3548.v21.dss.queryOperationalIntentReferences</name>
            <Placemark>
              <name>area_of_interest</name>
              <styleUrl>#QueryArea</styleUrl>
              <description><![CDATA[<ul><li>uss6's Accepted 48c5c5c3-1519-4ff6-8a02-7f25612c093e[1]</li><li>uss2's Activated 9f66cfb0-7f7b-43f3-b88b-ec4a7a731d59[2]</li></ul>]]></description>
              <TimeSpan>
                <begin>2026-09-26T01:52:40.838242+00:00</begin>
                <end>2026-09-26T02:37:40.838242+00:00</end>
              </TimeSpan>
              <MultiGeometry>
                <Polygon>
                  <altitudeMode>absolute</altitudeMode>
                  <outerBoundaryIs>
                    <LinearRing>
                      <coordinates>-96.77075638365808,32.71722787387462,111.32272931603475 -96.77075638365808,32.72700716221378,111.32272931603475 -96.75192818121407,32.72700716221378,111.32272931603475 -96.75192818121407,32.71722787387462,111.32272931603475</coordinates>
                    </LinearRing>
                  </outerBoundaryIs>
                </Polygon>
                <Polygon>
                  <altitudeMode>absolute</altitudeMode>
                  <outerBoundaryIs>
                    <LinearRing>
                      <coordinates>-96.77075638365808,32.71722787387462,196.32272931603475 -96.77075638365808,32.72700716221378,196.32272931603475 -96.75192818121407,32.72700716221378,196.32272931603475 -96.75192818121407,32.71722787387462,196.32272931603475</coordinates>
                    </LinearRing>
                  </outerBoundaryIs>
                </Polygon>
                <Polygon>
                  <altitudeMode>absolute</altitudeMode>
                  <outerBoundaryIs>
                    <LinearRing>
                      <coordinates>-96.77075638365808,32.71722787387462,111.32272931603475 -96.77075638365808,32.71722787387462,196.32272931603475 -96.77075638365808,32.72700716221378,196.32272931603475 -96.77075638365808,32.72700716221378,111.32272931603475</coordinates>
                    </LinearRing>
                  </outerBoundaryIs>
                </Polygon>
                <Polygon>
                  <altitudeMode>absolute</altitudeMode>
                  <outerBoundaryIs>
                    <LinearRing>
                      <coordinates>-96.77075638365808,32.72700716221378,111.32272931603475 -96.77075638365808,32.72700716221378,196.32272931603475 -96.75192818121407,32.72700716221378,196.32272931603475 -96.75192818121407,32.72700716221378,111.32272931603475</coordinates>
                    </LinearRing>
                  </outerBoundaryIs>
                </Polygon>
                <Polygon>
                  <altitudeMode>absolute</altitudeMode>
                  <outerBoundaryIs>
                    <LinearRing>
                      <coordinates>-96.75192818121407,32.72700716221378,111.32272931603475 -96.75192818121407,32.72700716221378,196.32272931603475 -96.75192818121407,32.71722787387462,196.32272931603475 -96.75192818121407,32.71722787387462,111.32272931603475</coordinates>
                    </LinearRing>
                  </outerBoundaryIs>
                </Polygon>
                <Polygon>
                  <altitudeMode>absolute</altitudeMode>
                  <outerBoundaryIs>
                    <LinearRing>
                      <coordinates>-96.75192818121407,32.71722787387462,111.32272931603475 -96.75192818121407,32.71722787387462,196.32272931603475 -96.77075638365808,32.71722787387462,196.32272931603475 -96.77075638365808,32.71722787387462,111.32272931603475</coordinates>
                    </LinearRing>
                  </outerBoundaryIs>
                </Polygon>
              </MultiGeometry>
            </Placemark>
          </Folder>
          <Folder>
            <name>E54: mock_uss astm.f3548.v21.uss.getOperationalIntentDetails</name>
            <Folder>
              <name>uss6's P0 Accepted 48c5c5c3-1519-4ff6-8a02-7f25612c093e[1] @ VCG4Qw1cboDgSDx0mqxZ-wonKYtCmzJYefsusyIQgZo_</name>
              <Placemark>
                <name>Nominal volume 0</name>
                <styleUrl>#F3548v21Accepted</styleUrl>
                <TimeSpan>
                  <begin>2026-09-26T01:52:42.232235+00:00</begin>
                  <end>2026-09-26T02:37:40.838242+00:00</end>
                </TimeSpan>
                <MultiGeometry>
                  <Polygon>
                    <altitudeMode>absolute</altitudeMode>
                    <outerBoundaryIs>
                      <LinearRing>
                        <coordinates>-96.76161769541804,32.72613433523766,120.31678560563748 -96.75674813349542,32.72700716221378,120.31678560563748 -96.75192818121407,32.71722787387462,120.31678560563748 -96.77075638365808,32.72021750892743,120.31678560563748 -96.75524248313734,32.72021448179331,120.31678560563748</coordinates>
                      </LinearRing>
                    </outerBoundaryIs>
                  </Polygon>
                  <Polygon>
                    <altitudeMode>absolute</altitudeMode>
                    <outerBoundaryIs>
                      <LinearRing>
                        <coordinates>-96.76161769541804,32.72613433523766,178.31678560563748 -96.75674813349542,32.72700716221378,178.31678560563748 -96.75192818121407,32.71722787387462,178.31678560563748 -96.77075638365808,32.72021750892743,178.31678560563748 -96.75524248313734,32.72021448179331,178.31678560563748</coordinates>
                      </LinearRing>
                    </outerBoundaryIs>
                  </Polygon>
                  <Polygon>
                    <altitudeMode>absolute</altitudeMode>
                    <outerBoundaryIs>
                      <LinearRing>
                        <coordinates>-96.76161769541804,32.72613433523766,120.31678560563748 -96.76161769541804,32.72613433523766,178.31678560563748 -96.75674813349542,32.72700716221378,178.31678560563748 -96.75674813349542,32.72700716221378,120.31678560563748</coordinates>
                      </LinearRing>
                    </outerBoundaryIs>
                  </Polygon>
                  <Polygon>
                    <altitudeMode>absolute</altitudeMode>
                    <outerBoundaryIs>
                      <LinearRing>
                        <coordinates>-96.75674813349542,32.72700716221378,120.31678560563748 -96.75674813349542,32.72700716221378,178.31678560563748 -96.75192818121407,32.71722787387462,178.31678560563748 -96.75192818121407,32.71722787387462,120.31678560563748</coordinates>
                      </LinearRing>
                    </outerBoundaryIs>
                  </Polygon>
                  <Polygon>
                    <altitudeMode>absolute</altitudeMode>
                    <outerBoundaryIs>
                      <LinearRing>
                        <coordinates>-96.75192818121407,32.71722787387462,120.31678560563748 -96.75192818121407,32.71722787387462,178.31678560563748 -96.77075638365808,32.72021750892743,178.31678560563748 -96.77075638365808,32.72021750892743,120.31678560563748</coordinates>
                      </LinearRing>
                    </outerBoundaryIs>
                  </Polygon>
                  <Polygon>
                    <altitudeMode>absolute</altitudeMode>
                    <outerBoundaryIs>
                      <LinearRing>
                        <coordinates>-96.77075638365808,32.72021750892743,120.31678560563748 -96.77075638365808,32.72021750892743,178.31678560563748 -96.75524248313734,32.72021448179331,178.31678560563748 -96.75524248313734,32.72021448179331,120.31678560563748</coordinates>
                      </LinearRing>
                    </outerBoundaryIs>
                  </Polygon>
                  <Polygon>
                    <altitudeMode>absolute</altitudeMode>
                    <outerBoundaryIs>
                      <LinearRing>
                        <coordinates>-96.75524248313734,32.72021448179331,120.31678560563748 -96.75524248313734,32.72021448179331,178.31678560563748 -96.76161769541804,32.72613433523766,178.31678560563748 -96.76161769541804,32.72613433523766,120.31678560563748</coordinates>
                      </LinearRing>
                    </outerBoundaryIs>
                  </Polygon>
                </MultiGeometry>
              </Placemark>
            </Folder>
          </Folder>
        </Folder>
        <Folder>
          <name>Validate Flight 2 notification received by tested_uss</name>
        </Folder>
      </Folder>
      <Folder>
        <name>Modify Activated operational intent area and receive notification of relevant intent</name>
        <Folder>
          <name>Mock_uss modifies planned Flight 2</name>
          <Folder>
            <name>E69: uss1_dss astm.f3548.v21.dss.queryOperationalIntentReferences</name>
            <Placemark>
              <name>area_of_interest</name>
              <styleUrl>#QueryArea</styleUrl>
              <description><![CDATA[<ul><li>uss6's Accepted 48c5c5c3-1519-4ff6-8a02-7f25612c093e[1]</li><li>uss2's Activated 9f66cfb0-7f7b-43f3-b88b-ec4a7a731d59[2]</li></ul>]]></description>
              <TimeSpan>
                <begin>2026-09-26T01:52:41.401912+00:00</begin>
                <end>2026-09-26T02:37:41.401912+00:00</end>
              </TimeSpan>
              <MultiGeometry>
                <Polygon>
                  <altitudeMode>absolute</altitudeMode>
                  <outerBoundaryIs>
                    <LinearRing>
                      <coordinates>-96.77075638365808,32.71722787387462,120.32272931603475 -96.77075638365808,32.72700716221378,120.32272931603475 -96.75192818121407,32.72700716221378,120.32272931603475 -96.75192818121407,32.71722787387462,120.32272931603475</coordinates>
                    </LinearRing>
                  </outerBoundaryIs>
                </Polygon>
                <Polygon>
                  <altitudeMode>absolute</altitudeMode>
                  <outerBoundaryIs>
                    <LinearRing>
                      <coordinates>-96.77075638365808,32.71722787387462,185.32272931603475 -96.77075638365808,32.72700716221378,185.32272931603475 -96.75192818121407,32.72700716221378,185.32272931603475 -96.75192818121407,32.71722787387462,185.32272931603475</coordinates>
                    </LinearRing>
                  </outerBoundaryIs>
                </Polygon>
                <Polygon>
                  <altitudeMode>absolute</altitudeMode>
                  <outerBoundaryIs>
                    <LinearRing>
                      <coordinates>-96.77075638365808,32.71722787387462,120.32272931603475 -96.77075638365808,32.71722787387462,185.32272931603475 -96.77075638365808,32.72700716221378,185.32272931603475 -96.77075638365808,32.72700716221378,120.32272931603475</coordinates>
                    </LinearRing>
                  </outerBoundaryIs>
                </Polygon>
                <Polygon>
                  <altitudeMode>absolute</altitudeMode>
                  <outerBoundaryIs>
                    <LinearRing>
                      <coordinates>-96.77075638365808,32.72700716221378,120.32272931603475 -96.77075638365808,32.72700716221378,185.32272931603475 -96.75192818121407,32.72700716221378,185.32272931603475 -96.75192818121407,32.72700716221378,120.32272931603475</coordinates>
                    </LinearRing>
                  </outerBoundaryIs>
                </Polygon>
                <Polygon>
                  <altitudeMode>absolute</altitudeMode>
                  <outerBoundaryIs>
                    <LinearRing>
                      <coordinates>-96.75192818121407,32.72700716221378,120.32272931603475 -96.75192818121407,32.72700716221378,185.32272931603475 -96.75192818121407,32.71722787387462,185.32272931603475 -96.75192818121407,32.71722787387462,120.32272931603475</coordinates>
                    </LinearRing>
                  </outerBoundaryIs>
                </Polygon>
                <Polygon>
                  <altitudeMode>absolute</altitudeMode>
                  <outerBoundaryIs>
                    <LinearRing>
                      <coordinates>-96.75192818121407,32.71722787387462,120.32272931603475 -96.75192818121407,32.71722787387462,185.32272931603475 -96.77075638365808,32.71722787387462,185.32272931603475 -96.77075638365808,32.71722787387462,120.32272931603475</coordinates>
                    </LinearRing>
                  </outerBoundaryIs>
                </Polygon>
              </MultiGeometry>
            </Placemark>
          </Folder>
          <Folder>
            <name>E71: mock_uss interuss.automated_testing.flight_planning.v1.UpsertFlightPlan</name>
            <Folder>
              <name>Activity Completed, flight Planned</name>
              <Placemark>
                <name>Volume 0</name>
                <styleUrl>#Planned_Nominal</styleUrl>
                <TimeSpan>
                  <begin>2026-09-26T01:52:41.401912+00:00</begin>
                  <end>2026-09-26T02:37:41.401912+00:00</end>
                </TimeSpan>
                <MultiGeometry>
                  <Polygon>
                    <altitudeMode>absolute</altitudeMode>
                    <outerBoundaryIs>
                      <LinearRing>
                        <coordinates>-96.76161769541804,32.72613433523766,120.31678560563748 -96.75674813349542,32.72700716221378,120.31678560563748 -96.75192818121407,32.71722787387462,120.31678560563748 -96.77075638365808,32.72021750892743,120.31678560563748 -96.75524248313734,32.72021448179331,120.31678560563748</coordinates>
                      </LinearRing>
                    </outerBoundaryIs>
                  </Polygon>
                  <Polygon>
                    <altitudeMode>absolute</altitudeMode>
                    <outerBoundaryIs>
                      <LinearRing>
                        <coordinates>-96.76161769541804,32.72613433523766,185.31678560563748 -96.75674813349542,32.72700716221378,185.31678560563748 -96.75192818121407,32.71722787387462,185.31678560563748 -96.77075638365808,32.72021750892743,185.31678560563748 -96.75524248313734,32.72021448179331,185.31678560563748</coordinates>
                      </LinearRing>
                    </outerBoundaryIs>
                  </Polygon>
                  <Polygon>
                    <altitudeMode>absolute</altitudeMode>
                    <outerBoundaryIs>
                      <LinearRing>
                        <coordinates>-96.76161769541804,32.72613433523766,120.31678560563748 -96.76161769541804,32.72613433523766,185.31678560563748 -96.75674813349542,32.72700716221378,185.31678560563748 -96.75674813349542,32.72700716221378,120.31678560563748</coordinates>
                      </LinearRing>
                    </outerBoundaryIs>
                  </Polygon>
                  <Polygon>
                    <altitudeMode>absolute</altitudeMode>
                    <outerBoundaryIs>
                      <LinearRing>
                        <coordinates>-96.75674813349542,32.72700716221378,120.31678560563748 -96.75674813349542,32.72700716221378,185.31678560563748 -96.75192818121407,32.71722787387462,185.31678560563748 -96.75192818121407,32.71722787387462,120.31678560563748</coordinates>
                      </LinearRing>
                    </outerBoundaryIs>
                  </Polygon>
                  <Polygon>
                    <altitudeMode>absolute</altitudeMode>
                    <outerBoundaryIs>
                      <LinearRing>
                        <coordinates>-96.75192818121407,32.71722787387462,120.31678560563748 -96.75192818121407,32.71722787387462,185.31678560563748 -96.77075638365808,32.72021750892743,185.31678560563748 -96.77075638365808,32.72021750892743,120.31678560563748</coordinates>
                      </LinearRing>
                    </outerBoundaryIs>
                  </Polygon>
                  <Polygon>
                    <altitudeMode>absolute</altitudeMode>
                    <outerBoundaryIs>
                      <LinearRing>
                        <coordinates>-96.77075638365808,32.72021750892743,120.31678560563748 -96.77075638365808,32.72021750892743,185.31678560563748 -96.75524248313734,32.72021448179331,185.31678560563748 -96.75524248313734,32.72021448179331,120.31678560563748</coordinates>
                      </LinearRing>
                    </outerBoundaryIs>
                  </Polygon>
                  <Polygon>
                    <altitudeMode>absolute</altitudeMode>
                    <outerBoundaryIs>
                      <LinearRing>
                        <coordinates>-96.75524248313734,32.72021448179331,120.31678560563748 -96.75524248313734,32.72021448179331,185.31678560563748 -96.76161769541804,32.72613433523766,185.31678560563748 -96.76161769541804,32.72613433523766,120.31678560563748</coordinates>
                      </LinearRing>
                    </outerBoundaryIs>
                  </Polygon>
                </MultiGeometry>
              </Placemark>
            </Folder>
          </Folder>
          <Folder>
            <name>E75: uss1_dss astm.f3548.v21.dss.queryOperationalIntentReferences</name>
            <Placemark>
              <name>area_of_interest</name>
              <styleUrl>#QueryArea</styleUrl>
              <description><![CDATA[<ul><li>uss6's Accepted 48c5c5c3-1519-4ff6-8a02-7f25612c093e[2]</li><li>uss2's Activated 9f66cfb0-7f7b-43f3-b88b-ec4a7a731d59[2]</li></ul>]]></description>
              <TimeSpan>
                <begin>2026-09-26T01:52:41.401912+00:00</begin>
                <end>2026-09-26T02:37:41.401912+00:00</end>
              </TimeSpan>
              <MultiGeometry>
                <Polygon>
                  <altitudeMode>absolute</altitudeMode>
                  <outerBoundaryIs>
                    <LinearRing>
                      <coordinates>-96.77075638365808,32.71722787387462,120.32272931603475 -96.77075638365808,32.72700716221378,120.32272931603475 -96.75192818121407,32.72700716221378,120.32272931603475 -96.75192818121407,32.71722787387462,120.32272931603475</coordinates>
                    </LinearRing>
                  </outerBoundaryIs>
                </Polygon>
                <Polygon>
                  <altitudeMode>absolute</altitudeMode>
                  <outerBoundaryIs>
                    <LinearRing>
                      <coordinates>-96.77075638365808,32.71722787387462,185.32272931603475 -96.77075638365808,32.72700716221378,185.32272931603475 -96.75192818121407,32.72700716221378,185.32272931603475 -96.75192818121407,32.71722787387462,185.32272931603475</coordinates>
                    </LinearRing>
                  </outerBoundaryIs>
                </Polygon>
                <Polygon>
                  <altitudeMode>absolute</altitudeMode>
                  <outerBoundaryIs>
                    <LinearRing>
                      <coordinates>-96.77075638365808,32.71722787387462,120.32272931603475 -96.77075638365808,32.71722787387462,185.32272931603475 -96.77075638365808,32.72700716221378,185.32272931603475 -96.77075638365808,32.72700716221378,120.32272931603475</coordinates>
                    </LinearRing>
                  </outerBoundaryIs>
                </Polygon>
                <Polygon>
                  <altitudeMode>absolute</altitudeMode>
                  <outerBoundaryIs>
                    <LinearRing>
                      <coordinates>-96.77075638365808,32.72700716221378,120.32272931603475 -96.77075638365808,32.72700716221378,185.32272931603475 -96.75192818121407,32.72700716221378,185.32272931603475 -96.75192818121407,32.72700716221378,120.32272931603475</coordinates>
                    </LinearRing>
                  </outerBoundaryIs>
                </Polygon>
                <Polygon>
                  <altitudeMode>absolute</altitudeMode>
                  <outerBoundaryIs>
                    <LinearRing>
                      <coordinates>-96.75192818121407,32.72700716221378,120.32272931603475 -96.75192818121407,32.72700716221378,185.32272931603475 -96.75192818121407,32.71722787387462,185.32272931603475 -96.75192818121407,32.71722787387462,120.32272931603475</coordinates>
                    </LinearRing>
                  </outerBoundaryIs>
                </Polygon>
                <Polygon>
                  <altitudeMode>absolute</altitudeMode>
                  <outerBoundaryIs>
                    <LinearRing>
                      <coordinates>-96.75192818121407,32.71722787387462,120.32272931603475 -96.75192818121407,32.71722787387462,185.32272931603475 -96.77075638365808,32.71722787387462,185.32272931603475 -96.77075638365808,32.71722787387462,120.32272931603475</coordinates>
                    </LinearRing>
                  </outerBoundaryIs>
                </Polygon>
              </MultiGeometry>
            </Placemark>
          </Folder>
          <Folder>
            <name>E79: mock_uss astm.f3548.v21.uss.getOperationalIntentDetails</name>
            <Folder>
              <name>uss6's P0 Accepted 48c5c5c3-1519-4ff6-8a02-7f25612c093e[2] @ nEXHcG2vabkAsvSUN.iBD6n5M9G0OLB6WSuDCk9hWlM_</name>
              <Placemark>
                <name>Nominal volume 0</name>
                <styleUrl>#F3548v21Accepted</styleUrl>
                <TimeSpan>
                  <begin>2026-09-26T01:52:42.436853+00:00</begin>
                  <end>2026-09-26T02:37:41.401912+00:00</end>
                </TimeSpan>
                <MultiGeometry>
                  <Polygon>
                    <altitudeMode>absolute</altitudeMode>
                    <outerBoundaryIs>
                      <LinearRing>
                        <coordinates>-96.76161769541804,32.72613433523766,120.31678560563748 -96.75674813349542,32.72700716221378,120.31678560563748 -96.75192818121407,32.71722787387462,120.31678560563748 -96.77075638365808,32.72021750892743,120.31678560563748 -96.75524248313734,32.72021448179331,120.31678560563748</coordinates>
                      </LinearRing>
                    </outerBoundaryIs>
                  </Polygon>
                  <Polygon>
                    <altitudeMode>absolute</altitudeMode>
                    <outerBoundaryIs>
                      <LinearRing>
                        <coordinates>-96.76161769541804,32.72613433523766,185.31678560563748 -96.75674813349542,32.72700716221378,185.31678560563748 -96.75192818121407,32.71722787387462,185.31678560563748 -96.77075638365808,32.72021750892743,185.31678560563748 -96.75524248313734,32.72021448179331,185.31678560563748</coordinates>
                      </LinearRing>
                    </outerBoundaryIs>
                  </Polygon>
                  <Polygon>
                    <altitudeMode>absolute</altitudeMode>
                    <outerBoundaryIs>
                      <LinearRing>
                        <coordinates>-96.76161769541804,32.72613433523766,120.31678560563748 -96.76161769541804,32.72613433523766,185.31678560563748 -96.75674813349542,32.72700716221378,185.31678560563748 -96.75674813349542,32.72700716221378,120.31678560563748</coordinates>
                      </LinearRing>
                    </outerBoundaryIs>
                  </Polygon>
                  <Polygon>
                    <altitudeMode>absolute</altitudeMode>
                    <outerBoundaryIs>
                      <LinearRing>
                        <coordinates>-96.75674813349542,32.72700716221378,120.31678560563748 -96.75674813349542,32.72700716221378,185.31678560563748 -96.75192818121407,32.71722787387462,185.31678560563748 -96.75192818121407,32.71722787387462,120.31678560563748</coordinates>
                      </LinearRing>
                    </outerBoundaryIs>
                  </Polygon>
                  <Polygon>
                    <altitudeMode>absolute</altitudeMode>
                    <outerBoundaryIs>
                      <LinearRing>
                        <coordinates>-96.75192818121407,32.71722787387462,120.31678560563748 -96.75192818121407,32.71722787387462,185.31678560563748 -96.77075638365808,32.72021750892743,185.31678560563748 -96.77075638365808,32.72021750892743,120.31678560563748</coordinates>
                      </LinearRing>
                    </outerBoundaryIs>
                  </Polygon>
                  <Polygon>
                    <altitudeMode>absolute</altitudeMode>
                    <outerBoundaryIs>
                      <LinearRing>
                        <coordinates>-96.77075638365808,32.72021750892743,120.31678560563748 -96.77075638365808,32.72021750892743,185.31678560563748 -96.75524248313734,32.72021448179331,185.31678560563748 -96.75524248313734,32.72021448179331,120.31678560563748</coordinates>
                      </LinearRing>
                    </outerBoundaryIs>
                  </Polygon>
                  <Polygon>
                    <altitudeMode>absolute</altitudeMode>
                    <outerBoundaryIs>
                      <LinearRing>
                        <coordinates>-96.75524248313734,32.72021448179331,120.31678560563748 -96.75524248313734,32.72021448179331,185.31678560563748 -96.76161769541804,32.72613433523766,185.31678560563748 -96.76161769541804,32.72613433523766,120.31678560563748</coordinates>
                      </LinearRing>
                    </outerBoundaryIs>
                  </Polygon>
                </MultiGeometry>
              </Placemark>
            </Folder>
          </Folder>
        </Folder>
        <Folder>
          <name>Validate Flight 2 notification received by tested_uss</name>
        </Folder>
      </Folder>
      <Folder>
        <name/>
        <Folder>
          <name>Cleanup</name>
        </Folder>
      </Folder>
    </Folder>
  </Document>
</kml>
