<kml xmlns="http://www.opengis.net/kml/2.2" xmlns:atom="http://www.w3.org/2005/Atom" xmlns:gx="http://www.google.com/kml/ext/2.2">
  <Document>
    <Style id="QueryArea">
      <LineStyle>
        <color>ffc0c000</color>
        <width>3</width>
      </LineStyle>
      <PolyStyle>
        <color>80ffffaa</color>
      </PolyStyle>
    </Style>
    <Style id="F3548v21Accepted">
      <LineStyle>
        <color>ff00c000</color>
        <width>3</width>
      </LineStyle>
      <PolyStyle>
        <color>80c0c0c0</color>
      </PolyStyle>
    </Style>
    <Style id="F3548v21Activated">
      <LineStyle>
        <color>ff00c000</color>
        <width>3</width>
      </LineStyle>
      <PolyStyle>
        <color>8000ff00</color>
      </PolyStyle>
    </Style>
    <Style id="F3548v21Nonconforming">
      <LineStyle>
        <color>ff00ffff</color>
        <width>5</width>
      </LineStyle>
      <PolyStyle>
        <color>8000ffff</color>
      </PolyStyle>
    </Style>
    <Style id="F3548v21Contingent">
      <LineStyle>
        <color>ff0000ff</color>
        <width>5</width>
      </LineStyle>
      <PolyStyle>
        <color>80ff0000ff</color>
      </PolyStyle>
    </Style>
    <Style id="F3548v21AcceptedFuture">
      <LineStyle>
        <color>80c0c0c0</color>
        <width>1</width>
      </LineStyle>
      <PolyStyle>
        <color>00000000</color>
      </PolyStyle>
    </Style>
    <Style id="F3548v21ActivatedFuture">
      <LineStyle>
        <color>8040c040</color>
        <width>1</width>
      </LineStyle>
      <PolyStyle>
        <color>00000000</color>
      </PolyStyle>
    </Style>
    <Style id="F3548v21NonconformingFuture">
      <LineStyle>
        <color>8000ffff</color>
        <width>1</width>
      </LineStyle>
      <PolyStyle>
        <color>00000000</color>
      </PolyStyle>
    </Style>
    <Style id="F3548v21ContingentFuture">
      <LineStyle>
        <color>80ff0000ff</color>
        <width>1</width>
      </LineStyle>
      <PolyStyle>
        <color>00000000</color>
      </PolyStyle>
    </Style>
    <Style id="Planned_Nominal">
      <LineStyle>
        <color>ff00c000</color>
        <width>3</width>
      </LineStyle>
      <PolyStyle>
        <color>80808080</color>
      </PolyStyle>
    </Style>
    <Style id="InUse_Nominal">
      <LineStyle>
        <color>ff00c000</color>
        <width>3</width>
      </LineStyle>
      <PolyStyle>
        <color>8000ff00</color>
      </PolyStyle>
    </Style>
    <Style id="InUse_OffNominal">
      <LineStyle>
        <color>ff00ffff</color>
        <width>5</width>
      </LineStyle>
      <PolyStyle>
        <color>8000ff00</color>
      </PolyStyle>
    </Style>
    <Style id="InUse_Contingent">
      <LineStyle>
        <color>ff0000ff</color>
        <width>5</width>
      </LineStyle>
      <PolyStyle>
        <color>8000ff00</color>
      </PolyStyle>
    </Style>
    <Style id="unmodifiedtelemetry">
      <IconStyle>
        <scale>1.4</scale>
        <Icon>
          <href>http://maps.google.com/mapfiles/kml/shapes/placemark_circle.png</href>
        </Icon>
      </IconStyle>
    </Style>
    <Style id="modifiedtelemetry">
      <IconStyle>
        <scale>1.4</scale>
        <Icon>
          <href>http://maps.google.com/mapfiles/kml/shapes/placemark_square.png</href>
        </Icon>
      </IconStyle>
    </Style>
    <Style id="aircraft">
      <IconStyle>
        <scale>1.4</scale>
        <Icon>
          <href>http://maps.google.com/mapfiles/kml/shapes/airports.png</href>
        </Icon>
      </IconStyle>
    </Style>
    <Folder>
      <name>ASTM NetRID Service Provider notification behavior</name>
      <Folder>
        <name>Setup</name>
        <Folder>
          <name>Clean workspace</name>
        </Folder>
      </Folder>
      <Folder>
        <name>Service Provider notification behavior</name>
        <Folder>
          <name>Mock USS Subscription</name>
        </Folder>
        <Folder>
          <name>Injection</name>
          <Folder>
            <name>E8: uss1 interuss.automated_testing.rid.v1.injection.createTest</name>
            <Folder>
              <name>Test flight 21c2e36f-83d7-47b2-89a3-cd328ee5322b</name>
              <Placemark>
                <name>Telemetry 0</name>
                <styleUrl>#unmodifiedtelemetry</styleUrl>
                <TimeSpan>
                  <begin>2026-09-02T17:45:48.681804+00:00</begin>
                  <end>2026-09-02T17:45:49.681804+00:00</end>
                </TimeSpan>
                <Point>
                  <coordinates>-80.57800055297378,37.1971014791759,0</coordinates>
                </Point>
              </Placemark>
              <Placemark>
                <name>Telemetry 1</name>
                <styleUrl>#unmodifiedtelemetry</styleUrl>
                <TimeSpan>
                  <begin>2026-09-02T17:45:49.681804+00:00</begin>
                  <end>2026-09-02T17:45:50.681804+00:00</end>
                </TimeSpan>
                <Point>
                  <coordinates>-80.57798081614081,37.197059404721635,0</coordinates>
                </Point>
              </Placemark>
              <Placemark>
                <name>Telemetry 2</name>
                <styleUrl>#unmodifiedtelemetry</styleUrl>
                <TimeSpan>
                  <begin>2026-09-02T17:45:50.681804+00:00</begin>
                  <end>2026-09-02T17:45:51.681804+00:00</end>
                </TimeSpan>
                <Point>
                  <coordinates>-80.57798798375362,37.197016214133484,0</coordinates>
                </Point>
              </Placemark>
              <Placemark>
                <name>Telemetry 3</name>
                <styleUrl>#unmodifiedtelemetry</styleUrl>
                <TimeSpan>
                  <begin>2026-09-02T17:45:51.681804+00:00</begin>
                  <end>2026-09-02T17:45:52.681804+00:00</end>
                </TimeSpan>
                <Point>
                  <coordinates>-80.57800212690604,37.196972734164305,0</coordinates>
                </Point>
              </Placemark>
              <Placemark>
                <name>Telemetry 4</name>
                <styleUrl>#unmodifiedtelemetry</styleUrl>
                <TimeSpan>
                  <begin>2026-09-02T17:45:52.681804+00:00</begin>
                  <end>2026-09-02T17:45:53.681804+00:00</end>
                </TimeSpan>
                <Point>
                  <coordinates>-80.57802342452034,37.196931703788785,0</coordinates>
                </Point>
              </Placemark>
              <Placemark>
                <name>Telemetry 5</name>
                <styleUrl>#unmodifiedtelemetry</styleUrl>
                <TimeSpan>
                  <begin>2026-09-02T17:45:53.681804+00:00</begin>
                  <end>2026-09-02T17:45:54.681804+00:00</end>
                </TimeSpan>
                <Point>
                  <coordinates>-80.57805344862881,37.19689368575391,0</coordinates>
                </Point>
              </Placemark>
              <Placemark>
                <name>Telemetry 6</name>
                <styleUrl>#unmodifiedtelemetry</styleUrl>
                <TimeSpan>
                  <begin>2026-09-02T17:45:54.681804+00:00</begin>
                  <end>2026-09-02T17:45:55.681804+00:00</end>
                </TimeSpan>
                <Point>
                  <coordinates>-80.57808720822365,37.19685213076737,0</coordinates>
                </Point>
              </Placemark>
              <Placemark>
                <name>Telemetry 7</name>
                <styleUrl>#unmodifiedtelemetry</styleUrl>
                <TimeSpan>
                  <begin>2026-09-02T17:45:55.681804+00:00</begin>
                  <end>2026-09-02T17:45:56.681804+00:00</end>
                </TimeSpan>
                <Point>
                  <coordinates>-80.57811722777369,37.19680923519623,0</coordinates>
                </Point>
              </Placemark>
              <Placemark>
                <name>Telemetry 8</name>
                <styleUrl>#unmodifiedtelemetry</styleUrl>
                <TimeSpan>
                  <begin>2026-09-02T17:45:56.681804+00:00</begin>
                  <end>2026-09-02T17:45:57.681804+00:00</end>
                </TimeSpan>
                <Point>
                  <coordinates>-80.5781323958596,37.1967658046547,0</coordinates>
                </Point>
              </Placemark>
              <Placemark>
                <name>Telemetry 9</name>
                <styleUrl>#unmodifiedtelemetry</styleUrl>
                <TimeSpan>
                  <begin>2026-09-02T17:45:57.681804+00:00</begin>
                  <end>2026-09-02T17:45:58.681804+00:00</end>
                </TimeSpan>
                <Point>
                  <coordinates>-80.57814392771789,37.19670166260832,0</coordinates>
                </Point>
              </Placemark>
              <Placemark>
                <name>Telemetry 10</name>
                <styleUrl>#unmodifiedtelemetry</styleUrl>
                <TimeSpan>
                  <begin>2026-09-02T17:45:58.681804+00:00</begin>
                  <end>2026-09-02T17:45:59.681804+00:00</end>
                </TimeSpan>
                <Point>
                  <coordinates>-80.57812974002694,37.19663489860375,0</coordinates>
                </Point>
              </Placemark>
              <Placemark>
                <name>Telemetry 11</name>
                <styleUrl>#unmodifiedtelemetry</styleUrl>
                <TimeSpan>
                  <begin>2026-09-02T17:45:59.681804+00:00</begin>
                  <end>2026-09-02T17:46:00.681804+00:00</end>
                </TimeSpan>
                <Point>
                  <coordinates>-80.57808680009781,37.19657292090538,0</coordinates>
                </Point>
              </Placemark>
              <Placemark>
                <name>Telemetry 12</name>
                <styleUrl>#unmodifiedtelemetry</styleUrl>
                <TimeSpan>
                  <begin>2026-09-02T17:46:00.681804+00:00</begin>
                  <end>2026-09-02T17:46:01.681804+00:00</end>
                </TimeSpan>
                <Point>
                  <coordinates>-80.57801685035301,37.19652877181478,0</coordinates>
                </Point>
              </Placemark>
              <Placemark>
                <name>Telemetry 13</name>
                <styleUrl>#unmodifiedtelemetry</styleUrl>
                <TimeSpan>
                  <begin>2026-09-02T17:46:01.681804+00:00</begin>
                  <end>2026-09-02T17:46:02.681804+00:00</end>
                </TimeSpan>
                <Point>
                  <coordinates>-80.57795541973255,37.19650790849303,0</coordinates>
                </Point>
              </Placemark>
              <Placemark>
                <name>Telemetry 14</name>
                <styleUrl>#unmodifiedtelemetry</styleUrl>
                <TimeSpan>
                  <begin>2026-09-02T17:46:02.681804+00:00</begin>
                  <end>2026-09-02T17:46:03.681804+00:00</end>
                </TimeSpan>
                <Point>
                  <coordinates>-80.57779490248247,37.19643592110631,0</coordinates>
                </Point>
              </Placemark>
              <Placemark>
                <name>Telemetry 15</name>
                <styleUrl>#unmodifiedtelemetry</styleUrl>
                <TimeSpan>
                  <begin>2026-09-02T17:46:03.681804+00:00</begin>
                  <end>2026-09-02T17:46:04.681804+00:00</end>
                </TimeSpan>
                <Point>
                  <coordinates>-80.57771381708879,37.19639543761661,0</coordinates>
                </Point>
              </Placemark>
              <Placemark>
                <name>Telemetry 16</name>
                <styleUrl>#unmodifiedtelemetry</styleUrl>
                <TimeSpan>
                  <begin>2026-09-02T17:46:04.681804+00:00</begin>
                  <end>2026-09-02T17:46:05.681804+00:00</end>
                </TimeSpan>
                <Point>
                  <coordinates>-80.5776456115435,37.19635960981006,0</coordinates>
                </Point>
              </Placemark>
              <Placemark>
                <name>Telemetry 17</name>
                <styleUrl>#unmodifiedtelemetry</styleUrl>
                <TimeSpan>
                  <begin>2026-09-02T17:46:05.681804+00:00</begin>
                  <end>2026-09-02T17:46:06.681804+00:00</end>
                </TimeSpan>
                <Point>
                  <coordinates>-80.57757190904874,37.19632841915715,0</coordinates>
                </Point>
              </Placemark>
              <Placemark>
                <name>Telemetry 18</name>
                <styleUrl>#unmodifiedtelemetry</styleUrl>
                <TimeSpan>
                  <begin>2026-09-02T17:46:06.681804+00:00</begin>
                  <end>2026-09-02T17:46:07.681804+00:00</end>
                </TimeSpan>
                <Point>
                  <coordinates>-80.57751114071674,37.19631735230622,0</coordinates>
                </Point>
              </Placemark>
              <Placemark>
                <name>Telemetry 19</name>
                <styleUrl>#unmodifiedtelemetry</styleUrl>
                <TimeSpan>
                  <begin>2026-09-02T17:46:07.681804+00:00</begin>
                  <end>2026-09-02T17:46:08.681804+00:00</end>
                </TimeSpan>
                <Point>
                  <coordinates>-80.57742677046657,37.19631370494702,0</coordinates>
                </Point>
              </Placemark>
              <Placemark>
                <name>Telemetry 20</name>
                <styleUrl>#unmodifiedtelemetry</styleUrl>
                <TimeSpan>
                  <begin>2026-09-02T17:46:08.681804+00:00</begin>
                  <end>2026-09-02T17:46:09.681804+00:00</end>
                </TimeSpan>
                <Point>
                  <coordinates>-80.5773706,37.1963054,0</coordinates>
                </Point>
              </Placemark>
              <Placemark>
                <name>Telemetry 21</name>
                <styleUrl>#unmodifiedtelemetry</styleUrl>
                <TimeSpan>
                  <begin>2026-09-02T17:46:09.681804+00:00</begin>
                  <end>2026-09-02T17:46:10.681804+00:00</end>
                </TimeSpan>
                <Point>
                  <coordinates>-80.5771453,37.1963577,0</coordinates>
                </Point>
              </Placemark>
              <Placemark>
                <name>Telemetry 22</name>
                <styleUrl>#unmodifiedtelemetry</styleUrl>
                <TimeSpan>
                  <begin>2026-09-02T17:46:10.681804+00:00</begin>
                  <end>2026-09-02T17:46:11.681804+00:00</end>
                </TimeSpan>
                <Point>
                  <coordinates>-80.5771265,37.1965735,0</coordinates>
                </Point>
              </Placemark>
              <Placemark>
                <name>Telemetry 23</name>
                <styleUrl>#unmodifiedtelemetry</styleUrl>
                <TimeSpan>
                  <begin>2026-09-02T17:46:11.681804+00:00</begin>
                  <end>2026-09-02T17:46:12.681804+00:00</end>
                </TimeSpan>
                <Point>
                  <coordinates>-80.57744590087025,37.19665029738701,0</coordinates>
                </Point>
              </Placemark>
              <Placemark>
                <name>Telemetry 24</name>
                <styleUrl>#unmodifiedtelemetry</styleUrl>
                <TimeSpan>
                  <begin>2026-09-02T17:46:12.681804+00:00</begin>
                  <end>2026-09-02T17:46:13.681804+00:00</end>
                </TimeSpan>
                <Point>
                  <coordinates>-80.5776442,37.1966013,0</coordinates>
                </Point>
              </Placemark>
              <Placemark>
                <name>Telemetry 25</name>
                <styleUrl>#unmodifiedtelemetry</styleUrl>
                <TimeSpan>
                  <begin>2026-09-02T17:46:13.681804+00:00</begin>
                  <end>2026-09-02T17:46:14.681804+00:00</end>
                </TimeSpan>
                <Point>
                  <coordinates>-80.57776806176655,37.1964375298218,0</coordinates>
                </Point>
              </Placemark>
              <Placemark>
                <name>Telemetry 26</name>
                <styleUrl>#unmodifiedtelemetry</styleUrl>
                <TimeSpan>
                  <begin>2026-09-02T17:46:14.681804+00:00</begin>
                  <end>2026-09-02T17:46:15.681804+00:00</end>
                </TimeSpan>
                <Point>
                  <coordinates>-80.57784172323511,37.1962376762061,0</coordinates>
                </Point>
              </Placemark>
              <Placemark>
                <name>Telemetry 27</name>
                <styleUrl>#unmodifiedtelemetry</styleUrl>
                <TimeSpan>
                  <begin>2026-09-02T17:46:15.681804+00:00</begin>
                  <end>2026-09-02T17:46:16.681804+00:00</end>
                </TimeSpan>
                <Point>
                  <coordinates>-80.5777311,37.1960563,0</coordinates>
                </Point>
              </Placemark>
              <Placemark>
                <name>Telemetry 28</name>
                <styleUrl>#unmodifiedtelemetry</styleUrl>
                <TimeSpan>
                  <begin>2026-09-02T17:46:16.681804+00:00</begin>
                  <end>2026-09-02T17:46:17.681804+00:00</end>
                </TimeSpan>
                <Point>
                  <coordinates>-80.57739321491916,37.19605837098315,0</coordinates>
                </Point>
              </Placemark>
              <Placemark>
                <name>Telemetry 29</name>
                <styleUrl>#unmodifiedtelemetry</styleUrl>
                <TimeSpan>
                  <begin>2026-09-02T17:46:17.681804+00:00</begin>
                  <end>2026-09-02T17:46:18.681804+00:00</end>
                </TimeSpan>
                <Point>
                  <coordinates>-80.5771357,37.1961151,0</coordinates>
                </Point>
              </Placemark>
              <Placemark>
                <name>Telemetry 30</name>
                <styleUrl>#unmodifiedtelemetry</styleUrl>
                <TimeSpan>
                  <begin>2026-09-02T17:46:18.681804+00:00</begin>
                  <end>2026-09-02T17:46:19.681804+00:00</end>
                </TimeSpan>
                <Point>
                  <coordinates>-80.5769627,37.1962283,0</coordinates>
                </Point>
              </Placemark>
              <Placemark>
                <name>Telemetry 31</name>
                <styleUrl>#unmodifiedtelemetry</styleUrl>
                <TimeSpan>
                  <begin>2026-09-02T17:46:19.681804+00:00</begin>
                  <end>2026-09-02T17:46:20.681804+00:00</end>
                </TimeSpan>
                <Point>
                  <coordinates>-80.5769184,37.1963885,0</coordinates>
                </Point>
              </Placemark>
              <Placemark>
                <name>Telemetry 32</name>
                <styleUrl>#unmodifiedtelemetry</styleUrl>
                <TimeSpan>
                  <begin>2026-09-02T17:46:20.681804+00:00</begin>
                  <end>2026-09-02T17:46:21.681804+00:00</end>
                </TimeSpan>
                <Point>
                  <coordinates>-80.5767347,37.1964356,0</coordinates>
                </Point>
              </Placemark>
              <Placemark>
                <name>Telemetry 33</name>
                <styleUrl>#unmodifiedtelemetry</styleUrl>
                <TimeSpan>
                  <begin>2026-09-02T17:46:21.681804+00:00</begin>
                  <end>2026-09-02T17:46:22.681804+00:00</end>
                </TimeSpan>
                <Point>
                  <coordinates>-80.5766366,37.1963538,0</coordinates>
                </Point>
              </Placemark>
              <Placemark>
                <name>Telemetry 34</name>
                <styleUrl>#unmodifiedtelemetry</styleUrl>
                <TimeSpan>
                  <begin>2026-09-02T17:46:22.681804+00:00</begin>
                  <end>2026-09-02T17:46:23.681804+00:00</end>
                </TimeSpan>
                <Point>
                  <coordinates>-80.5766634,37.1962096,0</coordinates>
                </Point>
              </Placemark>
              <Placemark>
                <name>Telemetry 35</name>
                <styleUrl>#unmodifiedtelemetry</styleUrl>
                <TimeSpan>
                  <begin>2026-09-02T17:46:23.681804+00:00</begin>
                  <end>2026-09-02T17:46:24.681804+00:00</end>
                </TimeSpan>
                <Point>
                  <coordinates>-80.5767707,37.1961284,0</coordinates>
                </Point>
              </Placemark>
              <Placemark>
                <name>Telemetry 36</name>
                <styleUrl>#unmodifiedtelemetry</styleUrl>
                <TimeSpan>
                  <begin>2026-09-02T17:46:24.681804+00:00</begin>
                  <end>2026-09-02T17:46:25.681804+00:00</end>
                </TimeSpan>
                <Point>
                  <coordinates>-80.5768887,37.1960493,0</coordinates>
                </Point>
              </Placemark>
              <Placemark>
                <name>Telemetry 37</name>
                <styleUrl>#unmodifiedtelemetry</styleUrl>
                <TimeSpan>
                  <begin>2026-09-02T17:46:25.681804+00:00</begin>
                  <end>2026-09-02T17:46:26.681804+00:00</end>
                </TimeSpan>
                <Point>
                  <coordinates>-80.5770684,37.1959745,0</coordinates>
                </Point>
              </Placemark>
              <Placemark>
                <name>Telemetry 38</name>
                <styleUrl>#unmodifiedtelemetry</styleUrl>
                <TimeSpan>
                  <begin>2026-09-02T17:46:26.681804+00:00</begin>
                  <end>2026-09-02T17:46:27.681804+00:00</end>
                </TimeSpan>
                <Point>
                  <coordinates>-80.5771757,37.19596070000001,0</coordinates>
                </Point>
              </Placemark>
              <Placemark>
                <name>Telemetry 39</name>
                <styleUrl>#unmodifiedtelemetry</styleUrl>
                <TimeSpan>
                  <begin>2026-09-02T17:46:27.681804+00:00</begin>
                  <end>2026-09-02T17:46:28.681804+00:00</end>
                </TimeSpan>
                <Point>
                  <coordinates>-80.5772937,37.19598200000001,0</coordinates>
                </Point>
              </Placemark>
              <Placemark>
                <name>Telemetry 40</name>
                <styleUrl>#unmodifiedtelemetry</styleUrl>
                <TimeSpan>
                  <begin>2026-09-02T17:46:28.681804+00:00</begin>
                  <end>2026-09-02T17:46:29.681804+00:00</end>
                </TimeSpan>
                <Point>
                  <coordinates>-80.5773326,37.1960942,0</coordinates>
                </Point>
              </Placemark>
              <Placemark>
                <name>Telemetry 41</name>
                <styleUrl>#unmodifiedtelemetry</styleUrl>
                <TimeSpan>
                  <begin>2026-09-02T17:46:29.681804+00:00</begin>
                  <end>2026-09-02T17:46:30.681804+00:00</end>
                </TimeSpan>
                <Point>
                  <coordinates>-80.577283,37.19619780000001,0</coordinates>
                </Point>
              </Placemark>
              <Placemark>
                <name>Telemetry 42</name>
                <styleUrl>#unmodifiedtelemetry</styleUrl>
                <TimeSpan>
                  <begin>2026-09-02T17:46:30.681804+00:00</begin>
                  <end>2026-09-02T17:46:31.681804+00:00</end>
                </TimeSpan>
                <Point>
                  <coordinates>-80.5772602,37.1963495,0</coordinates>
                </Point>
              </Placemark>
              <Placemark>
                <name>Telemetry 43</name>
                <styleUrl>#unmodifiedtelemetry</styleUrl>
                <TimeSpan>
                  <begin>2026-09-02T17:46:31.681804+00:00</begin>
                  <end>2026-09-02T17:46:32.681804+00:00</end>
                </TimeSpan>
                <Point>
                  <coordinates>-80.5772817,37.1964692,0</coordinates>
                </Point>
              </Placemark>
              <Placemark>
                <name>Telemetry 44</name>
                <styleUrl>#unmodifiedtelemetry</styleUrl>
                <TimeSpan>
                  <begin>2026-09-02T17:46:32.681804+00:00</begin>
                  <end>2026-09-02T17:46:33.681804+00:00</end>
                </TimeSpan>
                <Point>
                  <coordinates>-80.5773863,37.1965546,0</coordinates>
                </Point>
              </Placemark>
              <Placemark>
                <name>Telemetry 45</name>
                <styleUrl>#unmodifiedtelemetry</styleUrl>
                <TimeSpan>
                  <begin>2026-09-02T17:46:33.681804+00:00</begin>
                  <end>2026-09-02T17:46:34.681804+00:00</end>
                </TimeSpan>
                <Point>
                  <coordinates>-80.5775406,37.1965589,0</coordinates>
                </Point>
              </Placemark>
              <Placemark>
                <name>Telemetry 46</name>
                <styleUrl>#unmodifiedtelemetry</styleUrl>
                <TimeSpan>
                  <begin>2026-09-02T17:46:34.681804+00:00</begin>
                  <end>2026-09-02T17:46:35.681804+00:00</end>
                </TimeSpan>
                <Point>
                  <coordinates>-80.57763850000002,37.1965782,0</coordinates>
                </Point>
              </Placemark>
              <Placemark>
                <name>Telemetry 47</name>
                <styleUrl>#unmodifiedtelemetry</styleUrl>
                <TimeSpan>
                  <begin>2026-09-02T17:46:35.681804+00:00</begin>
                  <end>2026-09-02T17:46:36.681804+00:00</end>
                </TimeSpan>
                <Point>
                  <coordinates>-80.57763850000002,37.1966679,0</coordinates>
                </Point>
              </Placemark>
              <Placemark>
                <name>Telemetry 48</name>
                <styleUrl>#unmodifiedtelemetry</styleUrl>
                <TimeSpan>
                  <begin>2026-09-02T17:46:36.681804+00:00</begin>
                  <end>2026-09-02T17:46:37.681804+00:00</end>
                </TimeSpan>
                <Point>
                  <coordinates>-80.5775473,37.1967074,0</coordinates>
                </Point>
              </Placemark>
              <Placemark>
                <name>Telemetry 49</name>
                <styleUrl>#unmodifiedtelemetry</styleUrl>
                <TimeSpan>
                  <begin>2026-09-02T17:46:37.681804+00:00</begin>
                  <end>2026-09-02T17:46:38.681804+00:00</end>
                </TimeSpan>
                <Point>
                  <coordinates>-80.5773823,37.1966967,0</coordinates>
                </Point>
              </Placemark>
              <Placemark>
                <name>Telemetry 50</name>
                <styleUrl>#unmodifiedtelemetry</styleUrl>
                <TimeSpan>
                  <begin>2026-09-02T17:46:38.681804+00:00</begin>
                  <end>2026-09-02T17:46:39.681804+00:00</end>
                </TimeSpan>
                <Point>
                  <coordinates>-80.5773421,37.1966241,0</coordinates>
                </Point>
              </Placemark>
              <Placemark>
                <name>Telemetry 51</name>
                <styleUrl>#unmodifiedtelemetry</styleUrl>
                <TimeSpan>
                  <begin>2026-09-02T17:46:39.681804+00:00</begin>
                  <end>2026-09-02T17:46:40.681804+00:00</end>
                </TimeSpan>
                <Point>
                  <coordinates>-80.5773005,37.196528,0</coordinates>
                </Point>
              </Placemark>
              <Placemark>
                <name>Telemetry 52</name>
                <styleUrl>#unmodifiedtelemetry</styleUrl>
                <TimeSpan>
                  <begin>2026-09-02T17:46:40.681804+00:00</begin>
                  <end>2026-09-02T17:46:41.681804+00:00</end>
                </TimeSpan>
                <Point>
                  <coordinates>-80.5771557,37.1965055,0</coordinates>
                </Point>
              </Placemark>
              <Placemark>
                <name>Telemetry 53</name>
                <styleUrl>#unmodifiedtelemetry</styleUrl>
                <TimeSpan>
                  <begin>2026-09-02T17:46:41.681804+00:00</begin>
                  <end>2026-09-02T17:46:42.681804+00:00</end>
                </TimeSpan>
                <Point>
                  <coordinates>-80.5770457,37.19654400000001,0</coordinates>
                </Point>
              </Placemark>
              <Placemark>
                <name>Telemetry 54</name>
                <styleUrl>#unmodifiedtelemetry</styleUrl>
                <TimeSpan>
                  <begin>2026-09-02T17:46:42.681804+00:00</begin>
                  <end>2026-09-02T17:46:43.681804+00:00</end>
                </TimeSpan>
                <Point>
                  <coordinates>-80.5768834,37.19654500000001,0</coordinates>
                </Point>
              </Placemark>
              <Placemark>
                <name>Telemetry 55</name>
                <styleUrl>#unmodifiedtelemetry</styleUrl>
                <TimeSpan>
                  <begin>2026-09-02T17:46:43.681804+00:00</begin>
                  <end>2026-09-02T17:46:44.681804+00:00</end>
                </TimeSpan>
                <Point>
                  <coordinates>-80.5767869,37.1964831,0</coordinates>
                </Point>
              </Placemark>
              <Placemark>
                <name>Telemetry 56</name>
                <styleUrl>#unmodifiedtelemetry</styleUrl>
                <TimeSpan>
                  <begin>2026-09-02T17:46:44.681804+00:00</begin>
                  <end>2026-09-02T17:46:45.681804+00:00</end>
                </TimeSpan>
                <Point>
                  <coordinates>-80.5767547,37.1964083,0</coordinates>
                </Point>
              </Placemark>
              <Placemark>
                <name>Telemetry 57</name>
                <styleUrl>#unmodifiedtelemetry</styleUrl>
                <TimeSpan>
                  <begin>2026-09-02T17:46:45.681804+00:00</begin>
                  <end>2026-09-02T17:46:46.681804+00:00</end>
                </TimeSpan>
                <Point>
                  <coordinates>-80.5767587,37.1963228,0</coordinates>
                </Point>
              </Placemark>
              <Placemark>
                <name>Telemetry 58</name>
                <styleUrl>#unmodifiedtelemetry</styleUrl>
                <TimeSpan>
                  <begin>2026-09-02T17:46:46.681804+00:00</begin>
                  <end>2026-09-02T17:46:47.681804+00:00</end>
                </TimeSpan>
                <Point>
                  <coordinates>-80.5767587,37.1961893,0</coordinates>
                </Point>
              </Placemark>
              <Placemark>
                <name>Telemetry 59</name>
                <styleUrl>#unmodifiedtelemetry</styleUrl>
                <TimeSpan>
                  <begin>2026-09-02T17:46:47.681804+00:00</begin>
                  <end>2026-09-02T17:46:48.681804+00:00</end>
                </TimeSpan>
                <Point>
                  <coordinates>-80.5766836,37.1961348,0</coordinates>
                </Point>
              </Placemark>
              <Placemark>
                <name>Telemetry 60</name>
                <styleUrl>#unmodifiedtelemetry</styleUrl>
                <TimeSpan>
                  <begin>2026-09-02T17:46:48.681804+00:00</begin>
                  <end>2026-09-02T17:46:49.681804+00:00</end>
                </TimeSpan>
                <Point>
                  <coordinates>-80.5766836,37.1960205,0</coordinates>
                </Point>
              </Placemark>
              <Placemark>
                <name>Telemetry 61</name>
                <styleUrl>#unmodifiedtelemetry</styleUrl>
                <TimeSpan>
                  <begin>2026-09-02T17:46:49.681804+00:00</begin>
                  <end>2026-09-02T17:46:50.681804+00:00</end>
                </TimeSpan>
                <Point>
                  <coordinates>-80.5767896,37.1960077,0</coordinates>
                </Point>
              </Placemark>
              <Placemark>
                <name>Telemetry 62</name>
                <styleUrl>#unmodifiedtelemetry</styleUrl>
                <TimeSpan>
                  <begin>2026-09-02T17:46:50.681804+00:00</begin>
                  <end>2026-09-02T17:46:51.681804+00:00</end>
                </TimeSpan>
                <Point>
                  <coordinates>-80.5769277,37.1959671,0</coordinates>
                </Point>
              </Placemark>
              <Placemark>
                <name>Telemetry 63</name>
                <styleUrl>#unmodifiedtelemetry</styleUrl>
                <TimeSpan>
                  <begin>2026-09-02T17:46:51.681804+00:00</begin>
                  <end>2026-09-02T17:46:52.681804+00:00</end>
                </TimeSpan>
                <Point>
                  <coordinates>-80.5770806,37.1959051,0</coordinates>
                </Point>
              </Placemark>
              <Placemark>
                <name>Telemetry 64</name>
                <styleUrl>#unmodifiedtelemetry</styleUrl>
                <TimeSpan>
                  <begin>2026-09-02T17:46:52.681804+00:00</begin>
                  <end>2026-09-02T17:46:53.681804+00:00</end>
                </TimeSpan>
                <Point>
                  <coordinates>-80.5771999,37.195896600000005,0</coordinates>
                </Point>
              </Placemark>
            </Folder>
          </Folder>
        </Folder>
        <Folder>
          <name>Validate Mock USS received notification</name>
        </Folder>
      </Folder>
      <Folder>
        <name/>
        <Folder>
          <name>Cleanup</name>
        </Folder>
      </Folder>
    </Folder>
  </Document>
</kml>
